{"type": "FeatureCollection", "features": [{"type": "Feature", "properties": {}, "geometry": {"type": "Polygon", "coordinates": [[[-72.22127286196037, 43.78756064118015], [-72.22133049905199, 43.78749150598768], [-72.22139721241034, 43.787426796367185], [-72.221472359537, 43.78736713549252], [-72.22155521672022, 43.78731309791482], [-72.22164498600478, 43.78726520402981], [-72.2217408028766, 43.78722391506677], [-72.22184174458798, 43.78718962864719], [-72.22194683904333, 43.78716267495599], [-72.22205507415988, 43.78714331356209], [-72.22216540761332, 43.787131730919086], [-72.22227677687441, 43.78712803856981], [-72.2223881094401, 43.787132272072235], [-72.22249833316067, 43.78714439065724], [-72.22260638656341, 43.78716427762097], [-72.2227112290736, 43.787191741448744], [-72.22281185103422, 43.78722651765907], [-72.22290728342836, 43.787268271350335], [-72.22299660721025, 43.787316600425704], [-72.22307896215537, 43.787371039464915], [-72.22315355514444, 43.78743106420596], [-72.22321966780143, 43.78749609659344], [-72.2232766634121, 43.787565510344955], [-72.22332399305643, 43.78763863698192], [-72.22336120089581, 43.78771477226691], [-72.22338792856411, 43.78779318298533], [-72.22340391862025, 43.78787311400634], [-72.22340901702901, 43.78795379555488], [-72.22340317464611, 43.788034450624856], [-72.22338644769313, 43.788114302462084], [-72.2233589972178, 43.78819258204493], [-72.22332108754463, 43.788268535490595], [-72.22327308373076, 43.7883414313157], [-72.22321544805159, 43.78841056748128], [-72.2231487355499, 43.78847527815424], [-72.2230735886912, 43.788534940120265], [-72.22299073117694, 43.7885889787863], [-72.22290096097507, 43.788636873714786], [-72.2228051426349, 43.788678163636355], [-72.22270419896057, 43.788712450892675], [-72.22259910212311, 43.788739405266675], [-72.22249086429683, 43.788758767163166], [-72.22238052791018, 43.78877035010927], [-72.2222691556051, 43.788774042550514], [-72.22215782000164, 43.78876980892535], [-72.22204759336624, 43.788757690007685], [-72.22193953728365, 43.78873780251408], [-72.22183469243157, 43.78871033797961], [-72.22173406855701, 43.788675560912935], [-72.22163863475042, 43.78863380624856], [-72.22154931011185, 43.78858547612074], [-72.22146695489877, 43.788531035990175], [-72.22139236224076, 43.78847101016079], [-72.22132625050108, 43.78840597672983], [-72.22126925635877, 43.788336562019786], [-72.22122192867738, 43.78826343454608], [-72.2211847232201, 43.7881872985783], [-72.22115799826153, 43.78810888735729], [-72.22114201113862, 43.78802895603316], [-72.22113691577384, 43.787948274392654], [-72.22114276119451, 43.78786761944542], [-72.22115949106231, 43.78778776794088], [-72.22118694421748, 43.7877094888879], [-72.22122485623255, 43.78763353614892], [-72.22127286196037, 43.78756064118015]]]}}, {"type": "Feature", "properties": {}, "geometry": {"type": "Polygon", "coordinates": [[[-72.22411043326574, 43.81218266651182], [-72.22416809090946, 43.81211353024078], [-72.22423482874932, 43.81204881930759], [-72.22431000405108, 43.81198915689875], [-72.22439289283162, 43.81193511758014], [-72.22448269683146, 43.81188722176425], [-72.22457855120219, 43.81184593069895], [-72.22467953283498, 43.81181164202594], [-72.22478466924983, 43.811784685951835], [-72.22489294795993, 43.811765322068524], [-72.22500332622114, 43.811753736853525], [-72.2251147410728, 43.81175004187443], [-72.22522611957282, 43.81175427271461], [-72.2253363891292, 43.811766388630495], [-72.22544448782782, 43.81178627294399], [-72.22554937465777, 43.811813734165916], [-72.22565003953531, 43.8118485078399], [-72.22574551303025, 43.81189025908875], [-72.22583487570098, 43.81193858583917], [-72.22591726694851, 43.8119930226933], [-72.22599189330396, 43.81205304541018], [-72.22605803606996, 43.812118075953954], [-72.22611505824229, 43.81218748805995], [-72.22616241064509, 43.81226061326545], [-72.22619963722056, 43.812336747346855], [-72.22622637942209, 43.81241515710114], [-72.22624237966856, 43.81249508740679], [-72.22624748382661, 43.81257576849559], [-72.22624164269648, 43.81265642336593], [-72.22622491248768, 43.81273627526552], [-72.22619745427922, 43.81281455517214], [-72.22615953247002, 43.81289050919985], [-72.22611151223406, 43.812963405859676], [-72.22605385600487, 43.81303254310459], [-72.22598711902309, 43.813097255091094], [-72.22591194398996, 43.81315691859222], [-72.22582905487828, 43.81321095900014], [-72.22573924996027, 43.813258855860454], [-72.22564339411963, 43.81330014788518], [-72.22554241052163, 43.81333443739577], [-72.22543727172184, 43.81336139415337], [-72.22532899029873, 43.81338075853987], [-72.22521860910066, 43.81339234405839], [-72.22510719120119, 43.81339603912967], [-72.2249958096595, 43.81339180816684], [-72.22488553718452, 43.813379691918136], [-72.22477743580248, 43.81335980707448], [-72.22467254662745, 43.813332345145376], [-72.22457187983326, 43.81329757061441], [-72.2244764049238, 43.81325581839169], [-72.224387041395, 43.81320749058796], [-72.22430464987885, 43.81315305264154], [-72.22423002385452, 43.81309302883536], [-72.2241638820067, 43.81302799724716], [-72.22410686130429, 43.81295858418174], [-72.22405951086668, 43.81288545813865], [-72.22402228667613, 43.81280932337376], [-72.22399554718763, 43.81273091311628], [-72.223979549878, 43.81265098250712], [-72.22397444876778, 43.812570301326105], [-72.22398029293957, 43.81248964657844], [-72.22399702606698, 43.81240979501166], [-72.22402448695887, 43.81233151563522], [-72.22406241111315, 43.81225556231467], [-72.22411043326574, 43.81218266651182]]]}}, {"type": "Feature", "properties": {}, "geometry": {"type": "Polygon", "coordinates": [[[-72.27433097304248, 43.82200302372424], [-72.27437894199062, 43.821930106807955], [-72.27443655116652, 43.821860945189215], [-72.2745032457419, 43.82179620491822], [-72.27457838339907, 43.821736509464], [-72.27466124051742, 43.82168243371066], [-72.27475101914224, 43.82163449842163], [-72.27484685466948, 43.821593165224854], [-72.2749478241717, 43.821558832167746], [-72.27505295528567, 43.82153182988439], [-72.27516123557561, 43.821512418411594], [-72.27527162228212, 43.82150078468523], [-72.27538305236322, 43.82149704073999], [-72.2754944527302, 43.82150122263076], [-72.27560475058043, 43.82151329008535], [-72.27571288372741, 43.82153312689238], [-72.2758178108285, 43.821560542020116], [-72.27591852141224, 43.82159527145606], [-72.27601404560828, 43.821636980749076], [-72.27610346348686, 43.821685268229864], [-72.27618591391737, 43.82173966887876], [-72.27626060286106, 43.82179965880351], [-72.27632681101788, 43.82186466028404], [-72.27638390075393, 43.82193404733562], [-72.27643132224276, 43.82200715173682], [-72.27646861876126, 43.822083269464436], [-72.27649543108923, 43.82216166747296], [-72.2765115009703, 43.822241590754025], [-72.27651667360041, 43.822322269607184], [-72.27651089912041, 43.822402927052295], [-72.27649423309789, 43.82248278631238], [-72.27646683599366, 43.822561078294335], [-72.27642897161812, 43.822637048996], [-72.27638100459205, 43.8227099667678], [-72.27632339683649, 43.82277912935943], [-72.27625670312513, 43.822843870683315], [-72.27618156574242, 43.82290356722994], [-72.27609870829849, 43.822957644073234], [-72.27600892876053, 43.823005580407894], [-72.27591309176768, 43.823046914565786], [-72.27581212030368, 43.823081248462515], [-72.2757069868072, 43.82310825143181], [-72.27559870380556, 43.823127663410425], [-72.27548831416232, 43.82313929744313], [-72.27537688103239, 43.82314304148339], [-72.27526547762162, 43.82313885947269], [-72.2751551768496, 43.82312679168783], [-72.2750470410151, 43.823106954352916], [-72.27494211156404, 43.82307953851991], [-72.27484139905826, 43.82304480822847], [-72.27474587344189, 43.823003097962555], [-72.2746564546993, 43.82295480942887], [-72.27457400399429, 43.82290040768756], [-72.27449931537618, 43.82284041667286], [-72.2744331081325, 43.8227754141467], [-72.27437601986206, 43.82270602613403], [-72.274328600335, 43.82263292089319], [-72.27429130619903, 43.82255680247966], [-72.27426449658276, 43.8224784039653], [-72.2742484296384, 43.82239848037789], [-72.27424326005713, 43.822317801429726], [-72.27424903758093, 43.82223714410453], [-72.27426570652526, 43.822157285174704], [-72.274293106317, 43.82207899372065], [-72.27433097304248, 43.82200302372424]]]}}, {"type": "Feature", "properties": {}, "geometry": {"type": "Polygon", "coordinates": [[[-72.26456792519357, 43.827665933908214], [-72.26461591057219, 43.827593021198986], [-72.26467353647281, 43.827523864607755], [-72.26474024790608, 43.82745913013629], [-72.264815402392, 43.82739944119777], [-72.26489827614786, 43.82734537261357], [-72.26498807105875, 43.82729744507802], [-72.26508392236381, 43.827256120144405], [-72.2651849069837, 43.827221795780616], [-72.26529005240955, 43.827194802536944], [-72.2653983460678, 43.82717540036322], [-72.26550874507036, 43.82716377610569], [-72.2656201862568, 43.827160041707906], [-72.26573159643148, 43.827164233132805], [-72.26584190269736, 43.82717631001641], [-72.26595004278688, 43.827196156056495], [-72.26605497529054, 43.82722358013245], [-72.26615568968484, 43.827258318145596], [-72.26625121606274, 43.8273000355622], [-72.2663406344735, 43.82734833063474], [-72.2664230837813, 43.827402738270465], [-72.26649776995824, 43.827462734509794], [-72.26656397373085, 43.827527741571856], [-72.26662105750749, 43.8275971334182], [-72.26666847151903, 43.82767024178118], [-72.26670575911437, 43.82774636259944], [-72.26673256115927, 43.82782476279773], [-72.2667486194963, 43.82790468734658], [-72.2667537794326, 43.827985366533305], [-72.26674799123124, 43.82806602337457], [-72.26673131059194, 43.828145881099196], [-72.26670389811629, 43.828224170628836], [-72.26666601776269, 43.82830013798496], [-72.26661803430584, 43.8283730515502], [-72.26656040982498, 43.82844220911476], [-72.26649369925491, 43.82850694463948], [-72.26641854504244, 43.82856663467067], [-72.2663356709598, 43.828620704344985], [-72.26624587513442, 43.828668632926224], [-72.26615002236232, 43.828709958820866], [-72.26604903577926, 43.82874428402412], [-72.26594388796948, 43.82877127795342], [-72.26583559159822, 43.828790680632615], [-72.26572518965779, 43.828802305196014], [-72.26561374542152, 43.828806039688295], [-72.26550233220226, 43.8288018481429], [-72.26539202301406, 43.82878977092845], [-72.26528388023678, 43.828769924359904], [-72.26517894538318, 43.82874249957813], [-72.26507822906713, 43.82870776070895], [-72.26498270126946, 43.82866604231901], [-72.26489328199553, 43.82861774619321], [-72.26481083241426, 43.82856333746482], [-72.26473614656412, 43.82850334013537], [-72.26466994370598, 43.82843833202764], [-72.26461286139637, 43.828368939220276], [-72.26456544934801, 43.82829583001782], [-72.26452816413658, 43.82821970851392], [-72.26450136480472, 43.82814130781017], [-72.26448530940556, 43.828061382955454], [-72.26448015251908, 43.827980703674235], [-72.26448594376502, 43.82790004695345], [-72.26450262732664, 43.82782018955968], [-72.26453004249007, 43.827741900558514], [-72.26456792519357, 43.827665933908214]]]}}, {"type": "Feature", "properties": {}, "geometry": {"type": "Polygon", "coordinates": [[[-72.23825106680086, 43.82766569312948], [-72.23829908416154, 43.827592791549534], [-72.23835674038332, 43.82752364830339], [-72.23842348018486, 43.82745892926432], [-72.238498660813, 43.827399257696825], [-72.23858155823329, 43.82734520825502], [-72.23867137410302, 43.82729730144886], [-72.23876724345948, 43.82725599863204], [-72.2388682430495, 43.82722169755945], [-72.23897340022012, 43.82719472855707], [-72.23908170228468, 43.82717535134128], [-72.23919210627416, 43.82716375251803], [-72.2393035489801, 43.82716004378593], [-72.23941495719225, 43.82716426086074], [-72.23952525803244, 43.827176363131514], [-72.23963338928539, 43.82719623405152], [-72.23973830962665, 43.82722368226057], [-72.23983900864982, 43.827258443427624], [-72.23993451659587, 43.82730018279592], [-72.2400239136915, 43.8273484984066], [-72.2401063390062, 43.82740292496906], [-72.24018099874301, 43.82746293834148], [-72.24024717388312, 43.827527960577996], [-72.24030422711054, 43.82759736549398], [-72.24035160895033, 43.827670484695965], [-72.2403888630612, 43.82774661401812], [-72.24041563063132, 43.82782502030334], [-72.24043165383529, 43.8279049484635], [-72.24043677831857, 43.82798562875109], [-72.24043095468565, 43.82806628417218], [-72.24041423897751, 43.82814613796924], [-72.24038679213344, 43.82822442110175], [-72.2403488784429, 43.82830037965273], [-72.24030086300164, 43.82837328208962], [-72.24024320819694, 43.828442426309785], [-72.24017646925572, 43.82850714640252], [-72.24010128889803, 43.82856681906283], [-72.24001839114796, 43.828620869594594], [-72.23992857436087, 43.82866877744598], [-72.23983270353477, 43.82871008122313], [-72.23973170197925, 43.828744383134264], [-72.23962654242281, 43.828771352821136], [-72.23951823764384, 43.82879073054108], [-72.23940783071562, 43.828802329668775], [-72.23929638495959, 43.82880603849394], [-72.23918497370316, 43.82880182129717], [-72.23907466994154, 43.82878971869416], [-72.23896653600228, 43.82876984724439], [-72.23886161331303, 43.82874239832839], [-72.23876091237045, 43.828707636304394], [-72.23866540300727, 43.828665895962075], [-72.23857600505134, 43.828617579297735], [-72.2384935794662, 43.828563151642484], [-72.23841892005916, 43.82850313718009], [-72.23835274583641, 43.828438113898336], [-72.23829569407866, 43.828368708022026], [-72.23824831420436, 43.82829558798152], [-72.2382110624793, 43.82821945797487], [-72.2381842976236, 43.828141051185476], [-72.23816827735837, 43.82806112272086], [-72.23816315592519, 43.82798044234023], [-72.23816898260235, 43.827899787041076], [-72.23818570123193, 43.82781993357625], [-72.23821315076232, 43.82774165097352], [-72.23825106680086, 43.82766569312948]]]}}, {"type": "Feature", "properties": {}, "geometry": {"type": "Polygon", "coordinates": [[[-72.21965211258045, 43.830671522047965], [-72.21970015496747, 43.83059862838762], [-72.21975783552327, 43.83052949462589], [-72.21982459873219, 43.830464786544674], [-72.21989980161564, 43.83040512730298], [-72.21998271992489, 43.83035109143619], [-72.2200725551161, 43.83030319932354], [-72.22016844204049, 43.830261912177214], [-72.22026945727576, 43.830227627601175], [-72.22037462801829, 43.830200675762576], [-72.22048294145074, 43.830181316212496], [-72.22059335449465, 43.83016973538674], [-72.22070480385435, 43.83016604481063], [-72.22081621625553, 43.830170280025115], [-72.22092651877969, 43.83018240024452], [-72.22103464919529, 43.83020228874931], [-72.22113956618598, 43.830229754009935], [-72.2212402593776, 43.83026453153115], [-72.22133575906727, 43.83030628639874], [-72.22142514556116, 43.83035461650453], [-72.22150755803084, 43.830409056418375], [-72.22158220280303, 43.83046908186988], [-72.221648361003, 43.830534114796805], [-72.22170539547788, 43.8306035289116], [-72.2217527569333, 43.8306766557322], [-72.22178998922425, 43.83075279101941], [-72.221816733749, 43.83083120155862], [-72.22183273290408, 43.83091113222076], [-72.22183783256654, 43.83099181323421], [-72.2218319835799, 43.83107246759805], [-72.2218152422293, 43.83115231856486], [-72.221787769701, 43.83123059712141], [-72.22174983053179, 43.83130654939476], [-72.22170179006282, 43.8313794439128], [-72.22164411092247, 43.83144857864913], [-72.22157734857196, 43.83151328778442], [-72.2215021459569, 43.83157294811912], [-72.22141922731569, 43.83162698507588], [-72.22132939120496, 43.83167487823356], [-72.22123350280881, 43.83171616633984], [-72.2211324856061, 43.83175045175383], [-72.22102731247605, 43.83177740427619], [-72.22091899632778, 43.83179676432957], [-72.2208085803441, 43.8318083454588], [-72.22069712793363, 43.83181203612694], [-72.22058571248795, 43.831807800789484], [-72.22047540704254, 43.83179568023682], [-72.22036727394122, 43.83177579120129], [-72.22026235460355, 43.831748325232844], [-72.22016165949387, 43.83171354685394], [-72.22006615838875, 43.831671791011765], [-72.21997677103646, 43.8316234598519], [-72.2198943582984, 43.83156901884504], [-72.21981971385816, 43.83150899230357], [-72.2197535565777, 43.8314439583316], [-72.21969652357458, 43.83137454325687], [-72.21964916408659, 43.831301415598325], [-72.21961193418316, 43.831225279627354], [-72.21958519237424, 43.83114686858483], [-72.21956919615896, 43.831066937619205], [-72.21956409954726, 43.83098625651373], [-72.21956995157838, 43.830905602272885], [-72.21958669585023, 43.830825751639324], [-72.21961417106425, 43.83074747361352], [-72.21965211258045, 43.830671522047965]]]}}, {"type": "Feature", "properties": {}, "geometry": {"type": "Polygon", "coordinates": [[[-72.27431542790653, 43.83297677643659], [-72.2743730478333, 43.83290761500699], [-72.27443975482713, 43.832842874925184], [-72.27451490645073, 43.832783179658364], [-72.27459777894897, 43.83272910408887], [-72.27468757421907, 43.832681168978304], [-72.27478342749664, 43.83263983595288], [-72.27488441568333, 43.832605503058446], [-72.27498956623596, 43.83257850092741], [-72.27509786653157, 43.83255908959518], [-72.27520827361818, 43.83254745599623], [-72.27531972425746, 43.832543712164], [-72.2754311451628, 43.83254789415236], [-72.2755414633338, 43.832559961688155], [-72.27564961638826, 43.83257979855917], [-72.27575456279187, 43.83260721373314], [-72.27585529188725, 43.832641943197075], [-72.27595083362584, 43.83268365249957], [-72.27604026790894, 43.83273193997128], [-72.27612273344793, 43.8327863405926], [-72.27619743605858, 43.83284633047157], [-72.2762636563092, 43.832911331888525], [-72.27632075644946, 43.832980718859375], [-72.27636818655263, 43.83305382316352], [-72.27640548981267, 43.8331299407786], [-72.27643230694446, 43.833208338660256], [-72.27644837964526, 43.833288261801364], [-72.27645355308391, 43.83336894050277], [-72.2764477773934, 43.83344959778585], [-72.27643110815298, 43.83352945687515], [-72.27640370585442, 43.833607748679206], [-72.2763658343581, 43.833683719197566], [-72.27631785835341, 43.83375663678245], [-72.27626023984777, 43.83382579918533], [-72.27619353371846, 43.83389054032044], [-72.27611838236946, 43.833950236680074], [-72.27603550954547, 43.834004313339946], [-72.2759457133617, 43.83405224949655], [-72.27584985861768, 43.83409358348342], [-72.2757488684681, 43.834127917217856], [-72.27564371553159, 43.834154920035076], [-72.27553541252271, 43.834174331873335], [-72.27542500249774, 43.834185965778744], [-72.27531354880786, 43.834189709705996], [-72.27520212485699, 43.83418552759769], [-72.27509180376252, 43.8341734597315], [-72.27498364801903, 43.83415362233236], [-72.27487869926412, 43.83412620645288], [-72.27477796824559, 43.83409147613311], [-72.27468242508586, 43.83404976585733], [-72.27459298993828, 43.83400147733232], [-72.27451052412464, 43.83394707561818], [-72.27443582183977, 43.83388708464882], [-72.27436960250282, 43.83382208218584], [-72.27431250382902, 43.83375269425351], [-72.27426507568872, 43.833679589109416], [-72.27422777481256, 43.83360347080815], [-72.27420096039404, 43.83352507242044], [-72.27418489063162, 43.83344514897289], [-72.27417972024355, 43.833364470176434], [-72.27418549897958, 43.83328381301333], [-72.27420217114349, 43.83320395425442], [-72.27422957613108, 43.83312566297846], [-72.27426744997868, 43.833049693165634], [-72.27431542790653, 43.83297677643659]]]}}, {"type": "Feature", "properties": {}, "geometry": {"type": "Polygon", "coordinates": [[[-72.26560649048756, 43.83292613676209], [-72.26568165099617, 43.832866447324584], [-72.26576453155867, 43.832812378179256], [-72.26585433399465, 43.832764450025806], [-72.26595019347073, 43.832723124423495], [-72.26605118682888, 43.83268879934665], [-72.2661563414761, 43.832661805352394], [-72.26626464475004, 43.832642402397795], [-72.26637505367, 43.83263077733665], [-72.26648650498007, 43.83262704212021], [-72.2665979253871, 43.83263123271934], [-72.26670824189554, 43.83264330877796], [-72.26681639213919, 43.83266315400181], [-72.26692133461077, 43.83269057727816], [-72.2670220586908, 43.83272531451601], [-72.267117594379, 43.832767031189114], [-72.26720702163489, 43.83281532555711], [-72.26728947923758, 43.83286973253401], [-72.26736417307919, 43.83292972816661], [-72.26743038381251, 43.83299473467988], [-72.2674874737788, 43.83306412604063], [-72.26753489314937, 43.833137233985944], [-72.26757218522148, 43.833213354458444], [-72.26759899081775, 43.83329175438624], [-72.26761505174656, 43.833371678742466], [-72.26762021329007, 43.833452357816256], [-72.26761442569588, 43.83353301462543], [-72.26759774465782, 43.83361287239906], [-72.26757033078131, 43.833691162058365], [-72.26753244803825, 43.833767129623546], [-72.26748446122635, 43.83384004347523], [-72.26742683245709, 43.83390920140086], [-72.26736011670663, 43.83397393735777], [-72.26728495647164, 43.83403362788815], [-72.26720207558236, 43.83408769812381], [-72.26711227223174, 43.83413562732314], [-72.26701641128832, 43.8341769538867], [-72.26700256777694, 43.834181658975766], [-72.26699350441342, 43.83419253535336], [-72.26692678787863, 43.834257271052344], [-72.26685162685615, 43.83431696129302], [-72.26676874518371, 43.834371031210004], [-72.26667894106187, 43.834418960064724], [-72.26658307936657, 43.83446028626108], [-72.26648208331947, 43.83449461179133], [-72.26637692559598, 43.83452160606977], [-72.26626861895683, 43.83454100911687], [-72.26615820649322, 43.834552634063414], [-72.26604675157985, 43.8345563689504], [-72.2659353276324, 43.83455217780743], [-72.26582500776824, 43.83454010099929], [-72.26571685447007, 43.834520254836974], [-72.26561190935202, 43.83449283045749], [-72.26551118312673, 43.834458091982775], [-72.26541564587055, 43.834416373975664], [-72.26532621767991, 43.83436807821739], [-72.26524375980962, 43.834313669837655], [-72.26516906637796, 43.83425367283466], [-72.26510285671883, 43.834188665028044], [-72.26504576845423, 43.834119272493574], [-72.26499835135425, 43.834046163533124], [-72.2649610620432, 43.83397004223805], [-72.26493425960321, 43.83389164170791], [-72.2649182021173, 43.83381171698993], [-72.26491304418559, 43.83373103780726], [-72.26491883543778, 43.833650381145894], [-72.26493552005714, 43.833570523771826], [-72.26496293731955, 43.83349223475046], [-72.2650008231431, 43.83341626804027], [-72.26504881263273, 43.83334335523199], [-72.26510644359574, 43.83327419850356], [-72.26517316099401, 43.83320946385802], [-72.26524832229009, 43.83314977471024], [-72.26533120363568, 43.8330957058836], [-72.26542100684283, 43.83304777807475], [-72.26551686707072, 43.83300645283965], [-72.26553071042599, 43.83300174792921], [-72.26553977387356, 43.83299087166555], [-72.26560649048756, 43.83292613676209]]]}}, {"type": "Feature", "properties": {}, "geometry": {"type": "Polygon", "coordinates": [[[-72.23169880827997, 43.84669773385819], [-72.23175649061326, 43.84662859424011], [-72.23182325892778, 43.84656387934498], [-72.23189847019576, 43.84650421239742], [-72.23198140008769, 43.846450168007], [-72.23207124994816, 43.846402266635046], [-72.23216715448712, 43.84636096958289], [-72.2322681901126, 43.84632667454989], [-72.23237338382468, 43.84629971180391], [-72.23248172258477, 43.84628034100104], [-72.2325921630705, 43.846268748685446], [-72.23270364172203, 43.846265046493095], [-72.23281508498293, 43.84626927007679], [-72.23292541963755, 43.846281378762846], [-72.23303358314496, 43.84630125594282], [-72.23313853387018, 43.84632871019622], [-72.23323926111418, 43.84636347713379], [-72.23333479484619, 43.84640522194323], [-72.23342421504456, 43.84645354261329], [-72.2335066605563, 43.84650797380465], [-72.23358133738995, 43.84656799133093], [-72.23364752636202, 43.84663301720625], [-72.23370459002328, 43.84670242521096], [-72.2337519787983, 43.84677554692184], [-72.23378923627892, 43.846851678148944], [-72.23381600362087, 43.84693008571678], [-72.23383202300087, 43.847010014524884], [-72.23383714010117, 43.847090694819514], [-72.23383130559735, 43.84717134960667], [-72.23381457563495, 43.8472512021349], [-72.23378711129061, 43.847329483375894], [-72.23374917702222, 43.84740543943091], [-72.23370113812369, 43.8474783387914], [-72.23364345720823, 43.847547479384296], [-72.23357668975414, 43.8476121953339], [-72.23350147875615, 43.847671863375055], [-72.23341854853336, 43.84772590885612], [-72.23332869775393, 43.8477738112739], [-72.2332327917432, 43.84781510928686], [-72.2331317541497, 43.8478494051587], [-72.23302655804899, 43.847876368589375], [-72.23291821657146, 43.84789573989641], [-72.23280777314388, 43.84790733251631], [-72.23269629143918, 43.84791103480141], [-72.23258484513111, 43.84790681109535], [-72.23247450755241, 43.84789470207648], [-72.23236634135638, 43.84787482436606], [-72.23226138828133, 43.84784736940497], [-72.2321606591166, 43.84781260160964], [-72.23206512396678, 43.847770855825345], [-72.23197570290796, 43.84772253410084], [-72.23189325712623, 43.847668101815906], [-72.23181858062345, 43.847608083198956], [-72.23175239257036, 43.847543056277814], [-72.23169533038086, 43.84747364731231], [-72.23164794357386, 43.84740052476258], [-72.23161068848187, 43.847324392850794], [-72.23158392385736, 43.84724598477878], [-72.2315679074192, 43.84716605566636], [-72.23156279337208, 43.847085375278986], [-72.23156863092308, 43.84700472061421], [-72.23158536380954, 43.846924868418796], [-72.23161283084251, 43.84684658770824], [-72.23165076746072, 43.84677063236092], [-72.23169880827997, 43.84669773385819]]]}}, {"type": "Feature", "properties": {}, "geometry": {"type": "Polygon", "coordinates": [[[-72.22612675251536, 43.852184685720225], [-72.226184446591, 43.85211554901167], [-72.2262512270647, 43.85205083746587], [-72.22632645079155, 43.85199117427522], [-72.22640939332207, 43.85193713401308], [-72.22649925587918, 43.851889237101034], [-72.22659517305051, 43.85184794479746], [-72.22669622112252, 43.85181365475598], [-72.22680142697537, 43.85178669719638], [-72.2269097774536, 43.8517673317248], [-72.22702022912202, 43.85175574483409], [-72.22713171831305, 43.85175204810795], [-72.22724317136881, 43.851756277146556], [-72.22735351497934, 43.85176839122369], [-72.22746168651746, 43.85178827367903], [-72.22756664427085, 43.85181573304122], [-72.2276673774728, 43.85185050487183], [-72.22776291603516, 43.8518922543115], [-72.22785233988976, 43.8519405793043], [-72.2279347878484, 43.85199501446936], [-72.22800946589605, 43.852055035582], [-72.2280756548375, 43.85212006462181], [-72.22813271722383, 43.85218947533867], [-72.22818010349184, 43.852262599283236], [-72.22821735725753, 43.852338732244036], [-72.22824411971236, 43.85241714102891], [-72.22826013308013, 43.85249707052565], [-72.22826524310098, 43.85257775097389], [-72.22825940051861, 43.852658405378136], [-72.22824266155641, 43.85273825699061], [-72.22821518737763, 43.852816536791856], [-72.22817724253491, 43.852892490896934], [-72.22812919242396, 43.85296538781611], [-72.22807149976597, 43.853034525499844], [-72.22800472015236, 43.853099238100405], [-72.22792949669493, 43.85315890238488], [-72.22784655383282, 43.85321294373784], [-72.22775669035587, 43.85326084169582], [-72.2276607717118, 43.85330213496024], [-72.22755972167072, 43.853336425840524], [-72.22745451342817, 43.8533633840847], [-72.22734616023142, 43.853382750060284], [-72.22723570562016, 43.85339433725506], [-72.22712421337503, 43.85339803407367], [-72.2270127572713, 43.853393804912336], [-72.22690241073605, 43.853381690502026], [-72.22679423650885, 43.8533618075159], [-72.2266892764054, 43.85333434744563], [-72.22658854128267, 43.8532995747569], [-72.22649300130264, 43.85325782434207], [-72.22640357658796, 43.853209498294504], [-72.2263211283599, 43.85315506203565], [-72.22624645064384, 43.85309503983216], [-72.22618026262222, 43.85303000974642], [-72.22612320170865, 43.85296059806873], [-72.22607581740971, 43.85288747328534], [-72.22603856603371, 43.85281133963997], [-72.22601180629738, 43.8527329303511], [-72.22599579587246, 43.85265300055028], [-72.22599068890572, 43.85257232000959], [-72.22599653453607, 43.85249166572806], [-72.22601327642298, 43.852411814448736], [-72.22604075329082, 43.85233353517832], [-72.22607870048363, 43.85225758178131], [-72.22612675251536, 43.852184685720225]]]}}]}