{"type": "FeatureCollection", "features": [{"type": "Feature", "properties": {}, "geometry": {"type": "Polygon", "coordinates": [[[-72.2776429697222, 43.805170027037505], [-72.2774591048544, 43.80488462217265], [-72.27739019476256, 43.80463328297917], [-72.2774484249966, 43.80464815726332], [-72.27755509727255, 43.804736930217175], [-72.27756506877202, 43.80479599314865], [-72.27773304928621, 43.80484060259415], [-72.27776878476975, 43.80482222098377], [-72.27774360928018, 43.8047409871831], [-72.27765718097714, 43.804689155993174], [-72.27764211412443, 43.804630083155466], [-72.27776457868079, 43.80458234848453], [-72.27785132144155, 43.804549305136426], [-72.2780040976411, 43.804571743309204], [-72.27799375676608, 43.80461231564721], [-72.27793253140716, 43.80463433802508], [-72.27790171363657, 43.80470070210824], [-72.27796776100713, 43.80475249352116], [-72.27801338631843, 43.80481531589247], [-72.27803868517425, 43.80486333789046], [-72.27798237720864, 43.80493334270625], [-72.27787525272933, 43.80496634654145], [-72.2779515046632, 43.805014467573415], [-72.27805846524137, 43.805025745990264], [-72.27812449944663, 43.80508122750428], [-72.27823146017705, 43.80509250575942], [-72.27850179843611, 43.80501553537762], [-72.2786497412888, 43.805001061117295], [-72.27881317250227, 43.80489805135679], [-72.27890014652, 43.804802273917836], [-72.27900870032482, 43.80465100482341], [-72.27920810841353, 43.804530963028576], [-72.2792962080539, 43.80450044135522], [-72.27946235151244, 43.80457159629989], [-72.27954052910044, 43.80456940698583], [-72.27971363012615, 43.804505926942134], [-72.27971318727461, 43.804626443287404], [-72.27973906811506, 43.80468553669361], [-72.27987595003792, 43.804704701537936], [-72.27998355526283, 43.80470958901375], [-72.28003897620577, 43.804745157805804], [-72.2804365482989, 43.80480964607283], [-72.28094191099741, 43.804862638907515], [-72.28129714129547, 43.804917592452846], [-72.28137027845679, 43.804900451350484], [-72.28191984984772, 43.804826526839875], [-72.28226243856946, 43.80476948657929], [-72.28231744765272, 43.80485041618963], [-72.28212892803992, 43.80491666094892], [-72.28189658610611, 43.80496977099932], [-72.28165662618059, 43.804998834589846], [-72.28133009146048, 43.80498110928654], [-72.28097990542105, 43.80494002633786], [-72.28056623830437, 43.80485849804634], [-72.28014445183328, 43.80478856333127], [-72.27956780490847, 43.80468844670177], [-72.27935706109585, 43.80457940356016], [-72.27921999162585, 43.80467877481104], [-72.2788697385088, 43.80499365651229], [-72.27878186533515, 43.80509726265144], [-72.27870173587411, 43.80522401509429], [-72.27869307976181, 43.80541426967317], [-72.27859584524425, 43.80536034815044], [-72.27850226171103, 43.805327404870084], [-72.27835888563655, 43.80535016828827], [-72.27817548480547, 43.805442067974305], [-72.27800790925393, 43.80552247741749], [-72.27790869370972, 43.80570148533439], [-72.27777661761148, 43.805625894121505], [-72.27759207891113, 43.80535407899267], [-72.2776429697222, 43.805170027037505]]]}}, {"type": "Feature", "properties": {}, "geometry": {"type": "MultiPolygon", "coordinates": [[[[-72.25567602695305, 43.892969824056614], [-72.25526073876587, 43.89308324046973], [-72.25478807554163, 43.89271069081977], [-72.25485001336736, 43.89205361461995], [-72.2548321590797, 43.891582045402174], [-72.25461626756137, 43.89123866679814], [-72.25481518418665, 43.890896178493335], [-72.25542876710803, 43.89052667677305], [-72.25547633335988, 43.890429394218856], [-72.25543780942493, 43.8901721703072], [-72.25539987841812, 43.889800552526474], [-72.25557905652246, 43.889443709913415], [-72.25595580886188, 43.889130221016586], [-72.25613521480193, 43.88871622540905], [-72.25627488470637, 43.88840213924665], [-72.25663078428829, 43.88831721387666], [-72.25710580504534, 43.888103924857724], [-72.25740194270688, 43.88814739583015], [-72.25811172000789, 43.888506126454836], [-72.25805138339217, 43.888777450921474], [-72.25818837558016, 43.889092034979946], [-72.25812832753232, 43.88929198687216], [-72.25834527227852, 43.88937812967118], [-72.25812630392628, 43.889792044974484], [-72.25782836302437, 43.890191481862125], [-72.25766943884874, 43.89040553453756], [-72.25741216168515, 43.89050498314394], [-72.25745098397465, 43.890690833829744], [-72.2573017403864, 43.89078826132608], [-72.25732425513793, 43.89094437608928], [-72.25724429813164, 43.89117281644074], [-72.2566711923314, 43.891200128850905], [-72.2562758152883, 43.89125643884447], [-72.25627476630973, 43.89151366803767], [-72.25645133201996, 43.89182842842408], [-72.25613503870622, 43.891870595804306], [-72.25581991247354, 43.89162700212388], [-72.25593961966045, 43.891327184512754], [-72.25601946502101, 43.89112736611608], [-72.25623775359018, 43.890884911136745], [-72.25657412086846, 43.890771323042756], [-72.25700854783, 43.890843710779905], [-72.25703479027722, 43.890756192675966], [-72.2566412638256, 43.89060333855362], [-72.25624612379269, 43.890602496408576], [-72.25598849324027, 43.89078771487296], [-72.25546754968465, 43.8908424038306], [-72.25530896732121, 43.89094007874966], [-72.25509079207225, 43.8911539109218], [-72.25514909593969, 43.891382646020304], [-72.25536516640213, 43.89168318209152], [-72.2555413773376, 43.89208362691174], [-72.25554050077571, 43.89229792452855], [-72.2561313657554, 43.89277071781665], [-72.25640651386772, 43.89311421979474], [-72.25614922293441, 43.89321366547867], [-72.25567602695305, 43.892969824056614]]], [[[-72.25873671787087, 43.88545153947387], [-72.25839095780199, 43.88546511964065], [-72.25841119739576, 43.885322235927255], [-72.25845235757973, 43.88492945504213], [-72.25830495637943, 43.884729064268285], [-72.2578807590035, 43.88459955045547], [-72.25774328660448, 43.88440638031023], [-72.25756589561101, 43.884298809231], [-72.25724981690122, 43.88429813825802], [-72.25704205500053, 43.88437636033708], [-72.25678445419206, 43.884561490862595], [-72.2566949344447, 43.88472564780379], [-72.2566158269957, 43.884746900330114], [-72.25649773716262, 43.8846537645326], [-72.25637004161517, 43.88447492422302], [-72.25640053176727, 43.884260689433994], [-72.25643099272783, 43.8840535648916], [-72.25623440166405, 43.88380311428054], [-72.25612626173802, 43.8836813779972], [-72.25596860318278, 43.883588157188875], [-72.25574191066481, 43.883487678304895], [-72.25571267379318, 43.88339473155418], [-72.2558707107404, 43.88339506927022], [-72.25613723678646, 43.883431369963965], [-72.25644364693886, 43.88336056013221], [-72.25657244565612, 43.88326795030143], [-72.25680941308669, 43.883289965809205], [-72.25719467417107, 43.883290785009834], [-72.25751051573445, 43.88334860825197], [-72.25806509035279, 43.882992557269326], [-72.25875865746909, 43.8824510285224], [-72.25920305875123, 43.88247338676525], [-72.26050598016958, 43.88267620391191], [-72.2608415788041, 43.882741169683584], [-72.2612563953791, 43.88275634769668], [-72.26167135461418, 43.88273579285906], [-72.26169050301368, 43.8828644487022], [-72.26130496974734, 43.88296363868375], [-72.26075118651312, 43.88312682820188], [-72.26061196350885, 43.8833693677878], [-72.26025588831423, 43.8834758162543], [-72.25966276536082, 43.88361029663412], [-72.25922697758755, 43.88388803206911], [-72.2591375232137, 43.8840378804278], [-72.25877114977796, 43.884258517768636], [-72.25893691662144, 43.884780441370204], [-72.25898433243563, 43.88527349383907], [-72.25914122300556, 43.88555958761508], [-72.25941647987793, 43.88590308300668], [-72.25944520651353, 43.88612455352857], [-72.25922745691717, 43.88620986885331], [-72.25914938481422, 43.88597389363816], [-72.25891378849087, 43.88560906030992], [-72.25873671787087, 43.88545153947387]]], [[[-72.25970133188689, 43.886275129185364], [-72.25963166183875, 43.88642501946727], [-72.25957150657723, 43.88665350327907], [-72.25965929773018, 43.88691802990931], [-72.25947108715557, 43.88705336006425], [-72.25923453520713, 43.88692424611978], [-72.25912603790471, 43.88688828586722], [-72.25920609685303, 43.88663131294816], [-72.25922636354564, 43.88648131885432], [-72.25919717745691, 43.88637406250107], [-72.25923686581054, 43.88634561483031], [-72.25970133188689, 43.886275129185364]]], [[[-72.25904882695934, 43.88640768134566], [-72.25890808148597, 43.886993221022635], [-72.25849133984109, 43.88747818301603], [-72.25809593157051, 43.887548719924], [-72.25797924219167, 43.887077031569206], [-72.25811860074441, 43.88680578433985], [-72.25853379090788, 43.88673528914336], [-72.25875205318103, 43.88649282911421], [-72.25871295033473, 43.886406972673214], [-72.25904882695934, 43.88640768134566]]]]}}, {"type": "Feature", "properties": {}, "geometry": {"type": "Polygon", "coordinates": [[[-72.19506471869204, 43.82367793447673], [-72.19531099629614, 43.82372512392585], [-72.19554709603788, 43.82367139007266], [-72.19561164202332, 43.82361728895548], [-72.19571915515857, 43.82354773133219], [-72.19602950607324, 43.82363388198256], [-72.19617892282491, 43.82375848625615], [-72.19617868683699, 43.8238050182382], [-72.19615632107742, 43.82399891965145], [-72.19609129653878, 43.82412286371295], [-72.1961011672582, 43.82430911038879], [-72.19610034038583, 43.82447210731308], [-72.1960567432868, 43.824611589185785], [-72.19586360830779, 43.82464986755564], [-72.19562746565732, 43.82471134237116], [-72.19558426738928, 43.824796552086255], [-72.195465699325, 43.824912702715245], [-72.19525090447878, 43.82500519536133], [-72.1951219663116, 43.825082435805385], [-72.19495996032784, 43.82533032737728], [-72.19474492010056, 43.825446129710485], [-72.19446581052642, 43.82554618950367], [-72.1942299399453, 43.82555338912209], [-72.19402663004423, 43.82551405283123], [-72.19372688446346, 43.825443406053346], [-72.19355612015859, 43.825287779644924], [-72.19349272180493, 43.82511687010386], [-72.1934828641178, 43.82495393456818], [-72.19351561786692, 43.82484538633925], [-72.19351621325876, 43.82472901143164], [-72.19360222418206, 43.82465939814998], [-72.19358135793888, 43.824558446564566], [-72.19371045571194, 43.82445015654228], [-72.19389345538418, 43.8243032185841], [-72.19411878232224, 43.82424180840527], [-72.19419450258992, 43.82411780408434], [-72.19435615163258, 43.8239398465099], [-72.19449577933393, 43.82386263548901], [-72.1946680053905, 43.823731148343], [-72.19506471869204, 43.82367793447673]]]}}, {"type": "Feature", "properties": {}, "geometry": {"type": "Polygon", "coordinates": [[[-72.24384122503868, 43.86379568800413], [-72.24370714634941, 43.86379025714038], [-72.24353784833856, 43.86375918582984], [-72.24337578718087, 43.86372309027097], [-72.24317822890752, 43.86369717522157], [-72.2429525132984, 43.86368136700233], [-72.24278327460402, 43.86366559546053], [-72.24256173922683, 43.863690207868316], [-72.24251520558502, 43.86363439029027], [-72.24238195523796, 43.863465601688674], [-72.24227679717197, 43.86330200653565], [-72.24222791780532, 43.86318444050106], [-72.24215752444962, 43.86312307868171], [-72.24211769296599, 43.86309985766565], [-72.24217676198874, 43.863046708312346], [-72.24229742790183, 43.862959946177305], [-72.24244017970416, 43.86285739290857], [-72.24260459838302, 43.862778559431185], [-72.24272526313504, 43.86269179683748], [-72.24272570553246, 43.86258892274787], [-72.24267150487859, 43.86249375601724], [-72.24266298230573, 43.86236395040598], [-72.24271613017899, 43.86235677970964], [-72.24288161799979, 43.862347161658924], [-72.24313030315331, 43.862198133489684], [-72.24324162897047, 43.86193917081983], [-72.24329771558278, 43.861739846928096], [-72.24327108433165, 43.86151045572744], [-72.24314817782712, 43.86125087668244], [-72.24320448197075, 43.86097180933626], [-72.24326078558317, 43.86069274194742], [-72.24344055034886, 43.86054355820555], [-72.24364792892594, 43.86039443612191], [-72.24382773066992, 43.86026523284195], [-72.24399342934943, 43.860175869672865], [-72.24407649026467, 43.86009622172728], [-72.24425616579747, 43.859967017483484], [-72.2442984399426, 43.859767662120014], [-72.24435392780136, 43.85967805177558], [-72.24446413654076, 43.85967829825557], [-72.24458759921096, 43.85980818072517], [-72.24475176077583, 43.86010772242757], [-72.24497098979984, 43.86038740578302], [-72.24513549455256, 43.860607203699736], [-72.24535557328606, 43.86071731974999], [-72.24541766628234, 43.860741579289666], [-72.24543246380273, 43.86077203376672], [-72.24534443410195, 43.860879483000495], [-72.24528269430044, 43.86100598170784], [-72.24521217643934, 43.86111977017817], [-72.245255190802, 43.861271883623466], [-72.24523764095883, 43.861303526076], [-72.24514128028025, 43.86132230216793], [-72.24503607743422, 43.86137265002105], [-72.24496572019167, 43.86144854680893], [-72.24485152271872, 43.861536946307865], [-72.24483365933006, 43.86161287019429], [-72.24479824569707, 43.86172043645867], [-72.24476324779145, 43.861701367358066], [-72.24468474995736, 43.86164421918841], [-72.24464131505621, 43.86156176805669], [-72.24457178467533, 43.86147295827241], [-72.24451056701244, 43.861447530174964], [-72.24440544416402, 43.86147897668686], [-72.24437009503755, 43.86154217076309], [-72.24431743888582, 43.86158003485313], [-72.24424708087332, 43.86165584118939], [-72.24424683694333, 43.861712903474206], [-72.24415050262515, 43.86172528847121], [-72.24409762943311, 43.86181382448556], [-72.24409730412947, 43.86188987752768], [-72.24408039659744, 43.86188749955077], [-72.24408520333262, 43.86192702227321], [-72.24399735899074, 43.86199018866771], [-72.24400793325097, 43.86207724666665], [-72.24414964187454, 43.86218835949355], [-72.24424755310532, 43.862331055704836], [-72.24427968272758, 43.86249736582861], [-72.24433358170435, 43.862663724642], [-72.24436574558362, 43.86282211441728], [-72.2443430738683, 43.86300414269451], [-72.24434232962389, 43.86317829962615], [-72.24434172076161, 43.863320775292834], [-72.24438459543622, 43.86353454173331], [-72.24446048014468, 43.86370887002047], [-72.24447088621801, 43.86383552952419], [-72.24447051407968, 43.863922652980605], [-72.24444176358351, 43.86398424172602], [-72.24443736889562, 43.86399377236792], [-72.24431725584103, 43.86392231019896], [-72.24421906027159, 43.86387456812499], [-72.24408802386125, 43.86382675243037], [-72.24397855386925, 43.86382650724135], [-72.24397717586481, 43.863828754265036], [-72.24384122503868, 43.86379568800413]]]}}, {"type": "Feature", "properties": {}, "geometry": {"type": "Polygon", "coordinates": [[[-72.24278327460402, 43.86366559546053], [-72.2429525132984, 43.86368136700233], [-72.24317822890752, 43.86369717522157], [-72.24337578718087, 43.86372309027097], [-72.24353784833856, 43.86375918582984], [-72.24370714634941, 43.86379025714038], [-72.24384122503868, 43.86379568800413], [-72.24397717586481, 43.863828754265036], [-72.24391243149968, 43.86392923415442], [-72.24390090807478, 43.86406385495634], [-72.24390019680764, 43.86423000153259], [-72.24389968820552, 43.86434880623202], [-72.24388812029339, 43.86452284885911], [-72.24395310235185, 43.86465764107966], [-72.24395269593361, 43.864752594829135], [-72.24388676470699, 43.86483948136171], [-72.24384270464896, 43.8649027457194], [-72.24374384098917, 43.864981637957584], [-72.24374353563394, 43.86505292076724], [-72.24376253340658, 43.86506124377065], [-72.24370161259175, 43.865081898179454], [-72.24349703966574, 43.865066138453], [-72.24328566069265, 43.86498402982034], [-72.24306018181085, 43.86491196958994], [-72.24277870854598, 43.864727547391304], [-72.24254646972128, 43.86457896717382], [-72.24233542367898, 43.86442026376526], [-72.24225845873714, 43.864266902684236], [-72.24223101216872, 43.86408305174453], [-72.24225973450378, 43.863970791000476], [-72.24235905615943, 43.86384338867711], [-72.24245114764847, 43.863777172984214], [-72.24255738338056, 43.86369064807813], [-72.24256173922683, 43.863690207868316], [-72.24278327460402, 43.86366559546053]]]}}]}