{"type": "FeatureCollection", "features": [{"type": "Feature", "properties": {}, "geometry": {"type": "Polygon", "coordinates": [[[-72.275944, 43.817404], [-72.276178, 43.817354], [-72.27642, 43.817337], [-72.276663, 43.817355], [-72.276896, 43.817406], [-72.27711, 43.81749], [-72.277298, 43.817602], [-72.277453, 43.817739], [-72.277567, 43.817895], [-72.277637, 43.818064], [-72.27766, 43.818239], [-72.277636, 43.818415], [-72.277564, 43.818584], [-72.277449, 43.818739], [-72.277294, 43.818875], [-72.277105, 43.818987], [-72.27689, 43.819069], [-72.276656, 43.81912], [-72.276414, 43.819137], [-72.276171, 43.819119], [-72.275938, 43.819068], [-72.275724, 43.818984], [-72.275536, 43.818872], [-72.275382, 43.818735], [-72.275267, 43.818579], [-72.275197, 43.81841], [-72.275174, 43.818235], [-72.275199, 43.818059], [-72.27527, 43.81789], [-72.275385, 43.817735], [-72.275541, 43.817599], [-72.275729, 43.817487], [-72.275944, 43.817404]]]}}, {"type": "Feature", "properties": {}, "geometry": {"type": "Polygon", "coordinates": [[[-72.251529, 43.816468], [-72.252499, 43.816401], [-72.253469, 43.816473], [-72.2544, 43.816679], [-72.255259, 43.817014], [-72.25601, 43.817463], [-72.256627, 43.81801], [-72.257083, 43.818634], [-72.257364, 43.81931], [-72.257456, 43.820012], [-72.257358, 43.820714], [-72.257072, 43.821389], [-72.25661, 43.822011], [-72.25599, 43.822555], [-72.255234, 43.823001], [-72.254373, 43.823332], [-72.25344, 43.823535], [-72.252469, 43.823602], [-72.251499, 43.82353], [-72.250567, 43.823323], [-72.249709, 43.822989], [-72.248958, 43.822539], [-72.248341, 43.821993], [-72.247885, 43.821369], [-72.247604, 43.820693], [-72.247512, 43.819991], [-72.24761, 43.819288], [-72.247896, 43.818614], [-72.248358, 43.817992], [-72.248979, 43.817448], [-72.249734, 43.817002], [-72.250595, 43.816671], [-72.251529, 43.816468]]]}}, {"type": "Feature", "properties": {}, "geometry": {"type": "Polygon", "coordinates": [[[-72.318935, 43.815898], [-72.320791, 43.813397], [-72.323285, 43.811206], [-72.326321, 43.809409], [-72.329783, 43.808075], [-72.330602, 43.807897], [-72.334297, 43.808974], [-72.339351, 43.810456], [-72.333565, 43.818658], [-72.331722, 43.821269], [-72.331625, 43.821407], [-72.324359, 43.831701], [-72.32428, 43.831814], [-72.324028, 43.83217], [-72.323225, 43.83169], [-72.320743, 43.829491], [-72.318901, 43.826984], [-72.317771, 43.824265], [-72.317395, 43.821439], [-72.317788, 43.818613], [-72.318935, 43.815898]]]}}, {"type": "Feature", "properties": {}, "geometry": {"type": "Polygon", "coordinates": [[[-72.239778, 43.850939], [-72.2399, 43.850931], [-72.240021, 43.85094], [-72.240138, 43.850965], [-72.240245, 43.851007], [-72.240339, 43.851063], [-72.240416, 43.851132], [-72.240473, 43.85121], [-72.240508, 43.851294], [-72.24052, 43.851382], [-72.240507, 43.85147], [-72.240471, 43.851554], [-72.240414, 43.851632], [-72.240336, 43.8517], [-72.240242, 43.851756], [-72.240134, 43.851797], [-72.240017, 43.851822], [-72.239896, 43.851831], [-72.239775, 43.851822], [-72.239658, 43.851796], [-72.239551, 43.851754], [-72.239457, 43.851698], [-72.23938, 43.851629], [-72.239323, 43.851552], [-72.239287, 43.851467], [-72.239276, 43.851379], [-72.239288, 43.851291], [-72.239324, 43.851207], [-72.239382, 43.851129], [-72.239459, 43.851061], [-72.239554, 43.851006], [-72.239662, 43.850964], [-72.239778, 43.850939]]]}}, {"type": "Feature", "properties": {}, "geometry": {"type": "Polygon", "coordinates": [[[-72.214777, 43.871635], [-72.215929, 43.86892], [-72.217791, 43.866421], [-72.220291, 43.864232], [-72.223334, 43.862438], [-72.226801, 43.861108], [-72.23056, 43.860292], [-72.234466, 43.860023], [-72.238371, 43.86031], [-72.242123, 43.861143], [-72.245578, 43.86249], [-72.248604, 43.864298], [-72.251085, 43.866498], [-72.252924, 43.869006], [-72.254052, 43.871726], [-72.254426, 43.874553], [-72.254029, 43.877378], [-72.252879, 43.880092], [-72.251018, 43.882592], [-72.248518, 43.884782], [-72.245475, 43.886577], [-72.242007, 43.887907], [-72.238246, 43.888723], [-72.234338, 43.888992], [-72.231877, 43.888811], [-72.231863, 43.888912], [-72.231355, 43.888773], [-72.230756, 43.888609], [-72.223108, 43.886519], [-72.222465, 43.886342], [-72.220888, 43.88591], [-72.219679, 43.885561], [-72.219605, 43.88554], [-72.217135, 43.884883], [-72.215468, 43.884427], [-72.215325, 43.884375], [-72.215268, 43.884359], [-72.211275, 43.883265], [-72.207813, 43.882315], [-72.207549, 43.882246], [-72.205908, 43.881792], [-72.205421, 43.88166], [-72.203149, 43.881041], [-72.200219, 43.880231], [-72.200177, 43.88022], [-72.196471, 43.879203], [-72.197802, 43.878039], [-72.200845, 43.876246], [-72.204314, 43.874916], [-72.208074, 43.874102], [-72.211982, 43.873833], [-72.214442, 43.874015], [-72.214777, 43.871635]]]}}, {"type": "Feature", "properties": {}, "geometry": {"type": "Polygon", "coordinates": [[[-72.186329, 43.811306], [-72.186557, 43.811618], [-72.186697, 43.811956], [-72.186743, 43.812308], [-72.186693, 43.812659], [-72.18655, 43.812996], [-72.186318, 43.813306], [-72.186008, 43.813578], [-72.18563, 43.813801], [-72.185256, 43.813945], [-72.184725, 43.813123], [-72.184178, 43.812289], [-72.183742, 43.811414], [-72.18346, 43.810604], [-72.183781, 43.810534], [-72.184266, 43.810501], [-72.184751, 43.810537], [-72.185217, 43.81064], [-72.185646, 43.810808], [-72.186021, 43.811033], [-72.186329, 43.811306]]]}}, {"type": "Feature", "properties": {}, "geometry": {"type": "Polygon", "coordinates": [[[-72.186688, 43.826091], [-72.187063, 43.825402], [-72.187207, 43.825196], [-72.187262, 43.825222], [-72.186688, 43.826091]]]}}, {"type": "Feature", "properties": {}, "geometry": {"type": "Polygon", "coordinates": [[[-72.183227, 43.840793], [-72.183075, 43.839765], [-72.182961, 43.838769], [-72.182904, 43.837852], [-72.182741, 43.836943], [-72.18251, 43.836023], [-72.182426, 43.835067], [-72.182434, 43.834099], [-72.182498, 43.833178], [-72.182807, 43.832166], [-72.183249, 43.831319], [-72.183622, 43.830445], [-72.184219, 43.829614], [-72.184913, 43.828778], [-72.184442, 43.82949], [-72.182872, 43.832412], [-72.182856, 43.835562], [-72.183305, 43.838714], [-72.183292, 43.841189], [-72.183239, 43.841675], [-72.183227, 43.840793]]]}}, {"type": "Feature", "properties": {}, "geometry": {"type": "Polygon", "coordinates": [[[-72.183084, 43.84267], [-72.183208, 43.841963], [-72.18297, 43.844144], [-72.182923, 43.843571], [-72.183084, 43.84267]]]}}, {"type": "Feature", "properties": {}, "geometry": {"type": "Polygon", "coordinates": [[[-72.187508, 43.857263], [-72.188, 43.856397], [-72.188103, 43.855916], [-72.188189, 43.856168], [-72.18662, 43.858865], [-72.185451, 43.860456], [-72.185663, 43.859829], [-72.186276, 43.859002], [-72.186955, 43.858109], [-72.187508, 43.857263]]]}}, {"type": "Feature", "properties": {}, "geometry": {"type": "Polygon", "coordinates": [[[-72.167996, 43.870001], [-72.167999, 43.869945], [-72.168671, 43.870741], [-72.16845, 43.870741], [-72.167996, 43.870001]]]}}]}