{"type": "FeatureCollection", "features": [{"type": "Feature", "properties": {}, "geometry": {"type": "Polygon", "coordinates": [[[-72.22817842892943, 43.79171002530937], [-72.2281621958588, 43.79172409100583], [-72.22802180614909, 43.79184301871635], [-72.22794228635783, 43.79191950343389], [-72.22785411548027, 43.79202836757866], [-72.22778795880537, 43.79211415711312], [-72.22759016082992, 43.7923750047133], [-72.22753198808373, 43.792443550252614], [-72.22736304650233, 43.79262238805767], [-72.22723118034, 43.792781091292696], [-72.22715744178383, 43.792894281897105], [-72.22712844485092, 43.79295611415921], [-72.22709742884358, 43.79304132413794], [-72.22705832888646, 43.7931796365355], [-72.22705192014924, 43.79320087544745], [-72.22698119954423, 43.79342125203668], [-72.22694082511477, 43.79355345675719], [-72.22691142910568, 43.793631365186265], [-72.22687163251415, 43.7937068113081], [-72.22682181857034, 43.79377906852469], [-72.22676246698352, 43.79384744094687], [-72.22669414932292, 43.79391127009657], [-72.2266175235142, 43.79396994124888], [-72.22653332750345, 43.79402288935278], [-72.22644237215066, 43.79406960447347], [-72.2263455334203, 43.79410963670398], [-72.22624374394479, 43.794142600498475], [-72.22613798404193, 43.79416817838597], [-72.22602927227265, 43.794186124028], [-72.22591865563047, 43.794196264591534], [-72.22580719945677, 43.79419850241354], [-72.2256959771794, 43.794192815941834], [-72.22558605997325, 43.794179259942574], [-72.22547850644258, 43.79415796497277], [-72.22537435242452, 43.79412913612273], [-72.22527460101188, 43.794093051040676], [-72.2251802128916, 43.79405005725834], [-72.2250920970918, 43.79400056884361], [-72.22501110222663, 43.79394506241226], [-72.22493800832318, 43.793884072537374], [-72.22487351930936, 43.79381818660034], [-72.2248182562349, 43.79374803913364], [-72.22477275129091, 43.7936743057092], [-72.22473744268541, 43.793597696431895], [-72.22471267042425, 43.79351894910036], [-72.22469867303815, 43.79343882210114], [-72.22469558528688, 43.79335808710485], [-72.22470343686327, 43.79327752163443], [-72.22472215210875, 43.79319790157707], [-72.22476384301126, 43.79306140261279], [-72.22476652997513, 43.79305282295302], [-72.22483523500925, 43.792838751840115], [-72.22487769260529, 43.79268858172107], [-72.22489214388553, 43.79264385686994], [-72.22494134627392, 43.79250869718878], [-72.2249641791497, 43.79245380561545], [-72.22502666718242, 43.792320567979175], [-72.22507495295115, 43.79223405739805], [-72.22520070930449, 43.79204102824492], [-72.2252547721904, 43.791967850232034], [-72.22543330907286, 43.79175298636992], [-72.22546910595517, 43.791712617615865], [-72.22562535890425, 43.79154721732485], [-72.22579834192064, 43.79131910440762], [-72.22580226837167, 43.791313970040946], [-72.22587626211862, 43.791218021762326], [-72.22588820113701, 43.791202917670496], [-72.22601552841395, 43.79104571351237], [-72.2260879230399, 43.79096705997076], [-72.22622794384017, 43.79083238734876], [-72.22627200369331, 43.79079263473302], [-72.22642704969078, 43.79066129454789], [-72.2272443949497, 43.789936836611844], [-72.22758437796156, 43.78963548527388], [-72.22797372907185, 43.789162089431436], [-72.2279977289891, 43.78913419122913], [-72.22936996798936, 43.78760779178351], [-72.22943532025315, 43.787542357181394], [-72.22950921094669, 43.78748187815972], [-72.22959092845704, 43.787426937148844], [-72.22967968580335, 43.787378063245036], [-72.22977462821575, 43.787335727115526], [-72.22987484136688, 43.787300336466366], [-72.22997936017656, 43.78727223211649], [-72.23008717810494, 43.787251684715955], [-72.23019725684482, 43.787238892139825], [-72.23030853631958, 43.787233977582744], [-72.23041994489077, 43.787236988372776], [-72.23053040967682, 43.78724789551566], [-72.23063886688375, 43.78726659397399], [-72.23074427204863, 43.78729290367861], [-72.23084561009665, 43.787326571262454], [-72.2309419051156, 43.787367272500305], [-72.23103222975331, 43.78741461543081], [-72.23111571414779, 43.78746814413064], [-72.23119155430385, 43.78752734310486], [-72.23125901983592, 43.787591642250696], [-72.23131746100208, 43.78766042234737], [-72.23136631496203, 43.787733021019], [-72.23140511119819, 43.787808739113025], [-72.23143347604817, 43.787886847433015], [-72.23145113630456, 43.78796659376085], [-72.23145792184759, 43.788047210100565], [-72.23145376728509, 43.78812792007459], [-72.23143871258391, 43.788207946400455], [-72.23141290268669, 43.78828651837656], [-72.2313765861176, 43.788362879304614], [-72.23133011259056, 43.78843629377734], [-72.23127392964237, 43.7885060547612], [-72.2299141026433, 43.790018701233386], [-72.22949331013008, 43.79053034481041], [-72.22944769554256, 43.79058141529284], [-72.22939699841967, 43.79062990568201], [-72.2290037748759, 43.790978457246595], [-72.22817842892943, 43.79171002530937]]]}}, {"type": "Feature", "properties": {}, "geometry": {"type": "Polygon", "coordinates": [[[-72.19947194446108, 43.793000084836976], [-72.19937841526213, 43.79304405051574], [-72.19927938722691, 43.79308116368113], [-72.19917581407509, 43.79311106690029], [-72.19906869330481, 43.7931334721781], [-72.19895905658497, 43.7931481637312], [-72.19884795981828, 43.793155000066385], [-72.19873647297078, 43.79315391534347], [-72.19862566976569, 43.79314492000944], [-72.19851661734137, 43.79312810069795], [-72.1984103659724, 43.79310361939467], [-72.19830793895336, 43.793071711877175], [-72.1982103227426, 43.793032685443826], [-72.19811845746088, 43.79298691595391], [-72.19803322783667, 43.79293484420742], [-72.19795545468511, 43.79287697169932], [-72.1978858870028, 43.792813855789255], [-72.19782519475461, 43.792746104333304], [-72.197773962422, 43.79267436982935], [-72.19773268337477, 43.792599343132714], [-72.19770175512063, 43.792521746802244], [-72.19768147547826, 43.79244232814129], [-72.19767203971051, 43.79236185200056], [-72.1976735386456, 43.792281093411766], [-72.19768595780398, 43.79220083012373], [-72.19770917753947, 43.79212183511217], [-72.19774297419319, 43.792044869135694], [-72.19778702224909, 43.79197067340952], [-72.19927397863609, 43.78977018736776], [-72.19932785011704, 43.789699475686795], [-72.19939102965533, 43.78963292964145], [-72.19946290878187, 43.7895711900917], [-72.1995427952541, 43.789514851607635], [-72.19962991972302, 43.78946445674387], [-72.19972344314226, 43.789420490815154], [-72.19982246484824, 43.78938337722305], [-72.19992603123339, 43.789353473378945], [-72.20003314492884, 43.78933106726244], [-72.20014277440848, 43.78931637464841], [-72.20025386392163, 43.789309537029204], [-72.20036534365899, 43.789310620252316], [-72.2004761400537, 43.78931961388626], [-72.20058518611879, 43.78933643132105], [-72.20069143172117, 43.78936091060209], [-72.20079385369343, 43.78939281598979], [-72.20089146568611, 43.78943184022933], [-72.20098332766568, 43.789477607509355], [-72.20106855496667, 43.789529677080736], [-72.20114632681079, 43.78958754750058], [-72.20121589421134, 43.78965066146087], [-72.20127658718631, 43.78971841115504], [-72.20132782121111, 43.78979014413083], [-72.20136910284849, 43.78986516957328], [-72.20140003450166, 43.78994276495714], [-72.20142031824456, 43.7900221830047], [-72.20142975869253, 43.790102658882326], [-72.20142826488548, 43.790183417565835], [-72.2014158511656, 43.79026368130441], [-72.20139263704093, 43.790342677110765], [-72.20135884603603, 43.79041964420557], [-72.20131480354098, 43.7904938413444], [-72.19982790380166, 43.79269435382187], [-72.19977403019952, 43.792765065695356], [-72.19971084776645, 43.79283161190762], [-72.19963896496826, 43.79289335156751], [-72.19955907406833, 43.792949690072746], [-72.19947194446108, 43.793000084836976]]]}}, {"type": "Feature", "properties": {}, "geometry": {"type": "Polygon", "coordinates": [[[-72.22407202660612, 43.798597042932016], [-72.22407558289522, 43.79887563314441], [-72.22409506831592, 43.7991248091437], [-72.22409664707106, 43.79915445207436], [-72.22410723068985, 43.79952772957235], [-72.22410700223948, 43.79956824565328], [-72.2240859126234, 43.800100305981715], [-72.22407724710519, 43.8001808276173], [-72.22405772642736, 43.80026034632371], [-72.22402753854345, 43.80033809628682], [-72.22398697414181, 43.80041332872364], [-72.22393642384749, 43.800485319093895], [-72.22387637446168, 43.80055337407816], [-72.22380740427444, 43.80061683825536], [-72.2237301774962, 43.800675100415404], [-72.22364543786139, 43.800727599446084], [-72.22355400146601, 43.80077382973748], [-72.22345674890786, 43.80081334605181], [-72.22335461680534, 43.80084576781199], [-72.22324858877637, 43.800870782767184], [-72.22313968596451, 43.80088815000055], [-72.22302895720338, 43.80089770224958], [-72.22291746891436, 43.800899347517316], [-72.22280629483458, 43.8008930699584], [-72.22269650567469, 43.80087893003173], [-72.2225891588056, 43.80085706391806], [-72.22248528807383, 43.80082768220834], [-72.22238589384358, 43.80079106787529], [-72.22229193336139, 43.80074757354777], [-72.22220431153646, 43.800697618114285], [-72.22212387222503, 43.80064168268834], [-72.22205139010325, 43.80058030597442], [-72.22198756320661, 43.80051407907943], [-72.2219330062077, 43.80044363981932], [-72.22188824449714, 43.800369666576074], [-72.22185370912469, 43.80029287176401], [-72.22182973264923, 43.80021399496831], [-72.22181654593727, 43.80013379582218], [-72.22181427594123, 43.80005304669081], [-72.22183458203546, 43.79954124281607], [-72.2218250061962, 43.799203057012356], [-72.22180516756865, 43.79894924128261], [-72.22180343354387, 43.79891263903959], [-72.22179760443616, 43.7985622342124], [-72.22180776934017, 43.79844203649348], [-72.22180905130335, 43.79843516950904], [-72.22183402047222, 43.79830142068345], [-72.22183476061403, 43.79829752613029], [-72.22186404374514, 43.79814611846555], [-72.22188198164744, 43.798075777389634], [-72.22190828433477, 43.79800683017769], [-72.22196147415669, 43.797887814537546], [-72.22198691421028, 43.797830835047904], [-72.22202487638906, 43.79775782591306], [-72.22209500841811, 43.797640179514175], [-72.22213351481686, 43.79758196996737], [-72.22307912628673, 43.796285529682464], [-72.22313598725822, 43.79621605455951], [-72.22320197560877, 43.79615095094185], [-72.22327645582149, 43.7960908457978], [-72.2233587106066, 43.796036317957046], [-72.22344794780965, 43.79598789253683], [-72.22354330804008, 43.795946035885294], [-72.22364387294728, 43.795911151090955], [-72.22374867406393, 43.795883574101204], [-72.22385670213185, 43.795863570487555], [-72.22396691682039, 43.795851332888226], [-72.22407825674388, 43.795846979153374], [-72.22418964968178, 43.79585055121029], [-72.22430002290304, 43.79586201465959], [-72.22440831349539, 43.79588125910656], [-72.22451347860019, 43.79590809922405], [-72.22461450545418, 43.79594227653703], [-72.22471042114165, 43.79598346191147], [-72.22480030196311, 43.79603125872361], [-72.22488328233014, 43.796085206679074], [-72.22495856310101, 43.796144786245264], [-72.22502541927669, 43.79620942365411], [-72.22508320698319, 43.79627849642711], [-72.22513136967272, 43.79635133936965], [-72.22516944348459, 43.79642725097657], [-72.2251970617133, 43.79650550018767], [-72.22521395834151, 43.796585333427714], [-72.22521997060343, 43.79666598186358], [-72.2252150405539, 43.79674666880834], [-72.22519921562814, 43.796826617201084], [-72.22517264818664, 43.79690505709054], [-72.22513559404945, 43.79698123305031], [-72.22508841003396, 43.797054411454255], [-72.22416365910792, 43.79832231040891], [-72.22413257731918, 43.79837445311191], [-72.22412367767909, 43.79839438771921], [-72.22410084046028, 43.79844549174645], [-72.22408567636356, 43.79852391242749], [-72.22407202660612, 43.798597042932016]]]}}, {"type": "Feature", "properties": {}, "geometry": {"type": "Polygon", "coordinates": [[[-72.22042866060939, 43.81601448198089], [-72.22035019833854, 43.81595707809779], [-72.22027988446793, 43.81589438179352], [-72.22021839614942, 43.8158269968832], [-72.22016632553165, 43.81575557233482], [-72.22012417405817, 43.81568079601883], [-72.22009234763911, 43.81560338808294], [-72.22007115274332, 43.81552409401646], [-72.22006079344827, 43.81544367747037], [-72.22006136947631, 43.81536291290276], [-72.22007287523591, 43.81528257812031], [-72.22009519987725, 43.815203446787514], [-72.22012812836132, 43.81512628097608], [-72.22017134353256, 43.81505182382594], [-72.22022442917451, 43.814980792388795], [-72.22028687401945, 43.814913870722954], [-72.22035807667314, 43.814851703305926], [-72.22043735140707, 43.81479488882841], [-72.22052393476285, 43.81474397442908], [-72.22061699290462, 43.81469945042602], [-72.22071562964905, 43.81466174559525], [-72.22081889509536, 43.814631223041935], [-72.22092579477244, 43.81460817670396], [-72.22103529921493, 43.81459282852166], [-72.22114635387612, 43.81458532630062], [-72.22125788928226, 43.81458574228852], [-72.22136883133047, 43.814594072479466], [-72.22147811163127, 43.81461023665251], [-72.22158467779606, 43.81463407914412], [-72.22168750357076, 43.81466537034709], [-72.22178559871764, 43.814703808921365], [-72.2218780185508, 43.81474902469574], [-72.22224922722927, 43.81495052799865], [-72.22233190505348, 43.81499998639021], [-72.22240777744815, 43.815054867160256], [-72.22331303508588, 43.815774569557], [-72.22397792714463, 43.816281811720245], [-72.22407298779632, 43.81636455506186], [-72.22423384610461, 43.816524827337254], [-72.22429491351078, 43.81659241298759], [-72.22434653821702, 43.81666400733201], [-72.2243882230239, 43.816738920890714], [-72.22441956645206, 43.81681643221605], [-72.22444026660996, 43.81689579484001], [-72.22445012410267, 43.81697624446278], [-72.22444904395375, 43.817057006313185], [-72.22443703652156, 43.817137302610035], [-72.22441421740125, 43.8172163600526], [-72.22438080631308, 43.81729341726807], [-72.22433712498803, 43.817367732144206], [-72.2242835940707, 43.817438588976685], [-72.22422072906944, 43.817505305362104], [-72.22414913539271, 43.81756723877048], [-72.22406950251909, 43.81762379273365], [-72.22398259735772, 43.81767442259026], [-72.2238892568624, 43.81771864073172], [-72.22379037997094, 43.817756021298734], [-72.22368691894715, 43.81778620428312], [-72.22357987020912, 43.817808898995374], [-72.22347026473194, 43.8178238868646], [-72.22335915811735, 43.817831023543775], [-72.22324762042616, 43.81783024030011], [-72.22313672587143, 43.817821544677095], [-72.2230275424713, 43.81780502042183], [-72.22292112176194, 43.81778082667832], [-72.22281848866903, 43.81774919645471], [-72.22272063163578, 43.81771043437879], [-72.22262849310258, 43.81766491376388], [-72.22254296042973, 43.817613073013135], [-72.22246485735128, 43.81755541139688], [-72.22239493604152, 43.817492484243814], [-72.22227786579164, 43.817375837045915], [-72.22165620689591, 43.816901566756385], [-72.22164029777696, 43.81688917678663], [-72.22079963134674, 43.816220812155706], [-72.22051451564657, 43.8160660405963], [-72.22042866060939, 43.81601448198089]]]}}, {"type": "Feature", "properties": {}, "geometry": {"type": "Polygon", "coordinates": [[[-72.18905782418017, 43.81610585797847], [-72.18912607086969, 43.8160419752712], [-72.18920263623234, 43.815983243868466], [-72.18928678289943, 43.815930229370025], [-72.18937770049884, 43.815883442318885], [-72.18947451345905, 43.81584333328503], [-72.18957628944082, 43.81581028852683], [-72.18968204831523, 43.815784626271714], [-72.18979077160182, 43.81576659365178], [-72.18990141227563, 43.815756364324294], [-72.1900129048492, 43.8157540367994], [-72.19012417563206, 43.815759633491666], [-72.19023415306941, 43.815773100504224], [-72.19034177805992, 43.81579430814765], [-72.19044601415402, 43.815823052188904], [-72.19054585753392, 43.81585905581771], [-72.1906403466797, 43.81590197231215], [-72.19072857162824, 43.815951388377165], [-72.19080968273597, 43.81600682812436], [-72.19088289886095, 43.81606775765442], [-72.1909475148856, 43.81613359019829], [-72.19100290850757, 43.816203691767456], [-72.1910485462336, 43.81627738725901], [-72.19108398851796, 43.81635396695679], [-72.19110889399678, 43.81643269336586], [-72.19112302277698, 43.816512808314606], [-72.19112623874793, 43.816593540256136], [-72.19111851089411, 43.816674111698475], [-72.19097030169826, 43.817576051852896], [-72.190951703916, 43.8176556868086], [-72.1909224155929, 43.81773361836788], [-72.19088271875363, 43.81780909599912], [-72.19083299566768, 43.817881392800885], [-72.19077372516912, 43.817949812502754], [-72.19070547804624, 43.81801369617133], [-72.19062891154523, 43.81807242855663], [-72.190544763041, 43.81812544401795], [-72.19045384293591, 43.81817223197177], [-72.19035702685493, 43.81821234180968], [-72.19025524721232, 43.818245387238434], [-72.19014948423116, 43.818271050000796], [-72.19004075650203, 43.81828908294094], [-72.18993011117216, 43.81829931238503], [-72.18981861385926, 43.81830163981409], [-72.18970733838741, 43.81829604281292], [-72.18959735644385, 43.818282575286034], [-72.1894897272564, 43.81826136693837], [-72.18938548739085, 43.818232622026024], [-72.1892856407669, 43.81819661738882], [-72.1891911489885, 43.8181536997838], [-72.18910292208217, 43.81810428254518], [-72.18902180973214, 43.818048841603336], [-72.18894859309702, 43.817987910900584], [-72.18888397728679, 43.81792207724855], [-72.18882858457235, 43.81785197467614], [-72.18878294839332, 43.817778278323004], [-72.18874750822161, 43.817701697936975], [-72.18872260533017, 43.81762297103848], [-72.18870847950771, 43.81754285581732], [-72.1887052667509, 43.817462123830715], [-72.18871299795636, 43.81738155257263], [-72.1888612406153, 43.81647961541412], [-72.18887984080001, 43.816399980789335], [-72.18890913111501, 43.81632204974121], [-72.18894882944065, 43.816246572780244], [-72.18899855342755, 43.816174276780224], [-72.18905782418017, 43.81610585797847]]]}}, {"type": "Feature", "properties": {}, "geometry": {"type": "Polygon", "coordinates": [[[-72.22820450195466, 43.8241797913683], [-72.2282100729689, 43.82426154466792], [-72.22822622551101, 43.824449793841936], [-72.22825816983122, 43.824713816720894], [-72.22834106013624, 43.825034610250235], [-72.22835087397529, 43.82507937917388], [-72.22838937654404, 43.82529284256124], [-72.22839642938844, 43.825344668660726], [-72.22841123008058, 43.8255054102467], [-72.22841356898356, 43.825574739238704], [-72.22840783753493, 43.825643964655455], [-72.2283809934675, 43.82583381114667], [-72.22836442596788, 43.8259128512688], [-72.22831905674519, 43.82607556223934], [-72.2283082685651, 43.82611034973821], [-72.22825661104952, 43.82626152510638], [-72.22823761651546, 43.82631055287022], [-72.2281673863866, 43.82647239460669], [-72.22812876781737, 43.82654816649676], [-72.22808007646591, 43.826620833072205], [-72.22802178122946, 43.82668969450173], [-72.22795444350307, 43.82675408759801], [-72.22787871177408, 43.82681339220508], [-72.22779531537715, 43.82686703717142], [-72.22770505747049, 43.826914505850965], [-72.22760880730088, 43.82695534107945], [-72.22750749183176, 43.82698914957756], [-72.22740208681522, 43.827015605739035], [-72.22729360739393, 43.8270344547669], [-72.22718309832337, 43.827045515127644], [-72.22707162390878, 43.82704868029978], [-72.22696025775367, 43.827043919799856], [-72.22685007241878, 43.82703127947604], [-72.226742129091, 43.827010881066556], [-72.22663746736195, 43.82698292102706], [-72.22653709521472, 43.82694766863837], [-72.22644197931513, 43.82690546341273], [-72.22635303570115, 43.82685671182366], [-72.2262711209602, 43.82680188339082], [-72.22619702397934, 43.82674150615779], [-72.22613145834764, 43.82667616160596], [-72.22607505548419, 43.826606479054085], [-72.2260283585577, 43.826533129596946], [-72.22599181725636, 43.826456819641834], [-72.22596578345812, 43.826378284105054], [-72.22595050784336, 43.826298279333784], [-72.22594613748211, 43.826217575821886], [-72.22595271441936, 43.826136950789426], [-72.22597017527188, 43.82605718069756], [-72.22599835184022, 43.8259790337709], [-72.2260580411854, 43.82584149424067], [-72.22609533857279, 43.825732355424904], [-72.22612489984691, 43.82562635182645], [-72.22613633657129, 43.82554549069857], [-72.22613032023014, 43.82548012383099], [-72.22610053831664, 43.82531497444459], [-72.22601321423426, 43.82497697259775], [-72.22599816982162, 43.82489745396545], [-72.22596013818425, 43.82458302070076], [-72.22595798980285, 43.82456223180276], [-72.22594050305612, 43.82435834318602], [-72.22593969730545, 43.82434786977988], [-72.22593230037418, 43.82423926113354], [-72.22593092721894, 43.82419600162247], [-72.22593166848748, 43.82403406928429], [-72.22593547520967, 43.823969444630244], [-72.22594628011484, 43.8239052360158], [-72.22598120265809, 43.82374910093972], [-72.22598296678284, 43.823741442789334], [-72.22603126318596, 43.82353771186052], [-72.22604667192766, 43.82348365428544], [-72.22611336993646, 43.82328377732883], [-72.22611742590917, 43.8232720034918], [-72.2262080576319, 43.823016936107564], [-72.22621503629209, 43.8229982128536], [-72.2263880975717, 43.822554737435276], [-72.22642365862093, 43.822478185658184], [-72.22646941184315, 43.822404526117445], [-72.22652491658067, 43.8223344681828], [-72.22658963827045, 43.822268686536795], [-72.22666295359296, 43.82220781467765], [-72.22674415647573, 43.82215243881902], [-72.2268324648934, 43.822103092244916], [-72.22692702839898, 43.82206025017457], [-72.22702693631359, 43.82202432518643], [-72.2271312264962, 43.82199566324525], [-72.22723889460839, 43.82197454037076], [-72.22734890378554, 43.82196115997994], [-72.22746019462082, 43.82195565092824], [-72.22757169536635, 43.82195806626877], [-72.22768233225297, 43.82196838274156], [-72.22779103982963, 43.82198650099744], [-72.22789677122246, 43.82201224655471], [-72.22799850821539, 43.82204537147922], [-72.2280952710547, 43.82208555677171], [-72.22818612788348, 43.82213241543953], [-72.22827020371503, 43.822185496223064], [-72.22834668885898, 43.82224428794101], [-72.22841484671882, 43.82230822441274], [-72.22847402088576, 43.82237668991032], [-72.2285236414608, 43.82244902508772], [-72.22856323054394, 43.82252453333016], [-72.22859240683756, 43.822602487462404], [-72.22861088931991, 43.82268213675139], [-72.22861849995284, 43.82276271413596], [-72.22861516539812, 43.82284344361394], [-72.22860091772534, 43.82292354771523], [-72.22857589410478, 43.82300225498943], [-72.22840648906313, 43.82343640179438], [-72.22832129046338, 43.82367620333658], [-72.2282655232465, 43.82384334200096], [-72.22822459189834, 43.8240160317332], [-72.22820484450308, 43.824104335161884], [-72.22820450195466, 43.8241797913683]]]}}, {"type": "Feature", "properties": {}, "geometry": {"type": "Polygon", "coordinates": [[[-72.22121988150772, 43.839154293200416], [-72.22120223280254, 43.839277827986955], [-72.22119057448883, 43.83933778114949], [-72.22118624892158, 43.83935532290024], [-72.22118501038543, 43.839383127762005], [-72.22117873204124, 43.83944693295423], [-72.22116562632168, 43.83951019248203], [-72.22113249614917, 43.839636433187096], [-72.2211073724709, 43.83971233398281], [-72.22109300009241, 43.83974816152342], [-72.22108364904402, 43.83982194778258], [-72.22106801629509, 43.8399019165419], [-72.2210416294852, 43.83998039114992], [-72.2210047426946, 43.84005661584594], [-72.22095771112892, 43.84012985653448], [-72.22090098769948, 43.84019940785554], [-72.22083511866278, 43.84026459997797], [-72.22076073836038, 43.840324805050926], [-72.22067856311057, 43.840379443250896], [-72.22058938430976, 43.84042798836645], [-72.220494060811, 43.8404699728664], [-72.22039351065207, 43.84050499240312], [-72.22028870221365, 43.84053270970704], [-72.22018064489212, 43.840552857835284], [-72.22007037937728, 43.840565242742805], [-72.21995896762837, 43.84056974515152], [-72.21984748264533, 43.84056632169913], [-72.21973699813346, 43.840555005356805], [-72.2196285781613, 43.840535905111594], [-72.2195232669116, 43.84050920491669], [-72.21942207862362, 43.840475161919485], [-72.21932598782422, 43.840434103984826], [-72.21923591994148, 43.84038642653696], [-72.21915274239159, 43.840332588750854], [-72.21907725622454, 43.84027310912955], [-72.21901018840953, 43.84020856051003], [-72.21895218483381, 43.840139564545936], [-72.21890380408318, 43.84006678572011], [-72.218865512063, 43.83999092494469], [-72.21883767751255, 43.839912712810516], [-72.21882056845506, 43.83983290255072], [-72.21881434961799, 43.83975226278641], [-72.2188190808483, 43.83967157012423], [-72.21883839290369, 43.839519229849614], [-72.21885347132728, 43.8394413770929], [-72.21887874339744, 43.839364920833845], [-72.21890845709666, 43.839290857236435], [-72.21891498552844, 43.83926598454833], [-72.21891602054511, 43.83924276838574], [-72.21893312366598, 43.839124683463645], [-72.2189445461722, 43.839078368126565], [-72.21896405318591, 43.83894186173585], [-72.21898259201919, 43.838856360765426], [-72.21900000661452, 43.838796718069716], [-72.2190193725371, 43.83868857389052], [-72.21903662890415, 43.8385687215032], [-72.21903798500165, 43.83855977736571], [-72.21906679847415, 43.83837886319443], [-72.2190783223629, 43.83832796744524], [-72.21907752630996, 43.838327869137835], [-72.21921650716732, 43.83773823357701], [-72.21924064707237, 43.837659381041895], [-72.21927534838032, 43.8375826208741], [-72.21932027686313, 43.837508692306606], [-72.21937499980525, 43.83743830730015], [-72.2194389901721, 43.837372143687276], [-72.2195116316865, 43.837310838644854], [-72.21959222476441, 43.837254982558356], [-72.21967999325253, 43.83720511333661], [-72.21977409190293, 43.83716171123219], [-72.219873614513, 43.837125194216824], [-72.21997760265178, 43.83709591395663], [-72.22008505488928, 43.83707415242598], [-72.2201949364395, 43.83706011919215], [-72.22030618912454, 43.83705394939762], [-72.22041774156389, 43.83705570245854], [-72.2205285194906, 43.83706536149282], [-72.2206374560955, 43.83708283348253], [-72.22074350229944, 43.83710795016963], [-72.220845636855, 43.83714046967613], [-72.22094287618027, 43.83718007883313], [-72.22103428383016, 43.83722639619636], [-72.22111897951396, 43.83727897571919], [-72.22119614757248, 43.83733731104767], [-72.22126504483309, 43.837400840396505], [-72.22132500776685, 43.83746895195864], [-72.22137545887917, 43.83754098979677], [-72.22141591227204, 43.83761626015981], [-72.22144597832454, 43.837694038163605], [-72.22146536744638, 43.837773574771546], [-72.22147389286819, 43.837854104007945], [-72.2214714724419, 43.837934850334506], [-72.22145812943344, 43.83801503611916], [-72.2213240172591, 43.838584106469455], [-72.22129756833637, 43.83874522885403], [-72.22127969143577, 43.838869423629035], [-72.22127638418165, 43.83888990652551], [-72.22124938871879, 43.839040687610684], [-72.22123425117888, 43.839105072649495], [-72.22121988150772, 43.839154293200416]]]}}, {"type": "Feature", "properties": {}, "geometry": {"type": "Polygon", "coordinates": [[[-72.19084962203779, 43.85493629082028], [-72.19089985322438, 43.85515648749109], [-72.19091260605352, 43.8552367235224], [-72.19091442920511, 43.85531747771616], [-72.19090530507707, 43.85539797236576], [-72.19088532149621, 43.855477432260976], [-72.19085467087407, 43.85555509215391], [-72.19081364835552, 43.85563020412887], [-72.19076264897771, 43.85570204480558], [-72.19070216386697, 43.85576992230613], [-72.19063277550993, 43.85583318291864], [-72.19055515214453, 43.85589121739338], [-72.19047004132494, 43.85594346681085], [-72.19037826272228, 43.855989427965], [-72.19028070023039, 43.85602865821006], [-72.19017829345285, 43.85606077972397], [-72.19007202865325, 43.856085483147524], [-72.18996292925567, 43.85610253056418], [-72.18985204598727, 43.85611175779156], [-72.18974044675757, 43.85611307596297], [-72.18962920637232, 43.85610647238333], [-72.18951939618074, 43.856092010651395], [-72.18941207375629, 43.85606983004726], [-72.18930827270998, 43.856040144190736], [-72.18920899273473, 43.85600323898374], [-72.18911518997655, 43.8559594698565], [-72.18902776782534, 43.855909258344134], [-72.18894756821402, 43.85585308802634], [-72.18887536350998, 43.85579149986981], [-72.18881184907661, 43.85572508701773], [-72.18875763657688, 43.8556544890769], [-72.18871324808335, 43.85558038595748], [-72.18867911105112, 43.855503491324434], [-72.18865555420251, 43.855424545724205], [-72.18860580177315, 43.855206411894606], [-72.18857925269224, 43.855093582533144], [-72.18855503121517, 43.85499064073413], [-72.18846730608963, 43.85462291754442], [-72.18841319345469, 43.854415562179064], [-72.18839788903621, 43.85433556011097], [-72.18839349477066, 43.854254857759045], [-72.1884000529332, 43.85417423233222], [-72.18841750032131, 43.85409446029542], [-72.18844566886514, 43.85401630989196], [-72.18848428724782, 43.853940533745124], [-72.18853298351972, 43.853867861610254], [-72.18859128868193, 43.853798993347255], [-72.18865864120399, 43.853734592181], [-72.18873439243245, 43.85367527831467], [-72.1888178128383, 43.853621622957476], [-72.18890809904276, 43.85357414282414], [-72.18900438155417, 43.85353329515931], [-72.18910573314099, 43.85349947333459], [-72.18921117776087, 43.85347300306072], [-72.18931969995924, 43.85345413925122], [-72.18943025464742, 43.85344306356782], [-72.18954177716587, 43.85343988267124], [-72.1896531935358, 43.85344462719412], [-72.18976343080047, 43.85345725144613], [-72.18987142735672, 43.853477633853785], [-72.18997614317709, 43.85350557813124], [-72.19007656982447, 43.85354081517014], [-72.19017174016253, 43.85358300563107], [-72.1902607376688, 43.85363174321093], [-72.19034270526043, 43.85368655855545], [-72.19041685354804, 43.853746923778665], [-72.19048246843772, 43.85381225754617], [-72.19053891800843, 43.853881930673026], [-72.19058565859818, 43.85395527218271], [-72.1906222400408, 43.8540315757683], [-72.19064831000216, 43.85411010659423], [-72.19070408705944, 43.85432380927351], [-72.19070726301275, 43.854336523992984], [-72.19079674306477, 43.85471154455141], [-72.1907971851647, 43.85471341022261], [-72.19082162811101, 43.854817276724006], [-72.19084866597065, 43.854932165009544], [-72.19084962203779, 43.85493629082028]]]}}, {"type": "Feature", "properties": {}, "geometry": {"type": "Polygon", "coordinates": [[[-72.2338688863036, 43.783732046231464], [-72.23377974638548, 43.783780548170036], [-72.2336844737002, 43.783822486416284], [-72.23358398579622, 43.78385745706804], [-72.2334792504546, 43.783885123326584], [-72.23337127636768, 43.78390521874064], [-72.23326110342359, 43.7839175497729], [-72.23314979269, 43.78392199766414], [-72.23303841619385, 43.78391851957708], [-72.23292804659549, 43.78390714900908], [-72.23281974685672, 43.78388799546945], [-72.23271456000218, 43.78386124342459], [-72.23261349907303, 43.7838271505213], [-72.23251753736943, 43.78378604510494], [-72.23242759907616, 43.78373832305707], [-72.23234455036123, 43.78368444398216], [-72.2322691910339, 43.783624926780824], [-72.23220224684168, 43.78356034465195], [-72.23214436248136, 43.783491319571866], [-72.23209609539057, 43.78341851630375], [-72.23205791038015, 43.78334263599512], [-72.23203017515885, 43.783264409424895], [-72.2320131567934, 43.78318458996521], [-72.23200701913798, 43.78310394632574], [-72.23201182125781, 43.78302325515043], [-72.23202751686205, 43.782943293537954], [-72.23205395475125, 43.782864831557845], [-72.23209088027511, 43.782788624834495], [-72.23213793778642, 43.78271540727038], [-72.23219467406743, 43.7826458839785], [-72.23226054269566, 43.7825807244923], [-72.23292808324048, 43.78198413833955], [-72.23307092480027, 43.78183332293711], [-72.23312806809642, 43.78177810391619], [-72.23319139599698, 43.7817265477981], [-72.23326046316444, 43.78167901712594], [-72.23353690291067, 43.78150415115687], [-72.23362437258005, 43.78145408152615], [-72.23371819461872, 43.78141046461336], [-72.23381746548762, 43.7813737204589], [-72.23392122917993, 43.78134420291638], [-72.2340284864269, 43.78132219624525], [-72.23413820432015, 43.781307912373556], [-72.23424932625768, 43.78130148885744], [-72.23436078211792, 43.781302987556465], [-72.23447149856399, 43.78131239403806], [-72.23458040937872, 43.781329617716416], [-72.23468646573136, 43.781354492724745], [-72.23478864627681, 43.78138677951248], [-72.23488596699038, 43.781426167151814], [-72.2349774906433, 43.78147227633173], [-72.23506233582796, 43.78152466301046], [-72.23513968544566, 43.78158282269122], [-72.23520879457553, 43.78164619528024], [-72.23526899764853, 43.78171417048016], [-72.2353197148577, 43.78178609366693], [-72.23536045774267, 43.78186127219366], [-72.23539083389487, 43.78193898206068], [-72.2354105507378, 43.78201847488768], [-72.2354194183462, 43.78209898512064], [-72.2354173512767, 43.78217973740442], [-72.23540436939234, 43.78225995404968], [-72.23538059767304, 43.78233886252251], [-72.2353462650135, 43.78241570288452], [-72.23530170202045, 43.78248973511167], [-72.23524733783007, 43.782560246221536], [-72.23518369597627, 43.78262655714011], [-72.23511138934975, 43.78268802924214], [-72.23503111429599, 43.782744070502126], [-72.23486291253587, 43.78285047080368], [-72.23477571237169, 43.782942541535455], [-72.2347214945392, 43.78299515798233], [-72.23402540126219, 43.78361727845257], [-72.23395103497602, 43.7836774477159], [-72.2338688863036, 43.783732046231464]]]}}, {"type": "Feature", "properties": {}, "geometry": {"type": "Polygon", "coordinates": [[[-72.24143164911597, 43.800304316906384], [-72.24134207853506, 43.8002562092037], [-72.24125944974953, 43.80020197421388], [-72.24118455852393, 43.800142134265236], [-72.24111812609723, 43.80007726566489], [-72.24106079223708, 43.800007993147986], [-72.24101310907903, 43.79993498386058], [-72.24097553580994, 43.79985894093416], [-72.24094843424676, 43.79978059671362], [-72.24093206535349, 43.79970070570392], [-72.24092658672932, 43.7996200373037], [-72.24093205109259, 43.79953936839514], [-72.24094840577469, 43.799459475862314], [-72.24097549322899, 43.79938112910928], [-72.24101305254975, 43.79930508265057], [-72.24106072198622, 43.799232068845065], [-72.24111804242787, 43.799162790843376], [-72.24118446182689, 43.79909791581653], [-72.2412593405155, 43.79903806853142], [-72.24134195736684, 43.79898382533437], [-72.24143151673991, 43.79893570860134], [-72.24152715614191, 43.79889418170773], [-72.24162795453402, 43.79885964456633], [-72.24173294120065, 43.79883242977657], [-72.24205867593409, 43.798760840906496], [-72.24296709383482, 43.79854712247163], [-72.24307470910932, 43.798525970662624], [-72.2431846684884, 43.79851256074692], [-72.24329591304473, 43.798507021864275], [-72.24340737147607, 43.798509407355084], [-72.24351797042074, 43.798519694246835], [-72.243626644793, 43.79853778347522], [-72.24373234803878, 43.79856350083804], [-72.24383406221303, 43.79859659867268], [-72.24393080778181, 43.798636758240725], [-72.24402165305449, 43.79868359279728], [-72.24410572315577, 43.79873665131488], [-72.24418220845043, 43.79879542282667], [-72.24425037234057, 43.79885934134657], [-72.24430955835938, 43.79892779131956], [-72.2443591964938, 43.7990001135491], [-72.24439880867476, 43.79907561154512], [-72.2444280133823, 43.79915355823103], [-72.24444652932105, 43.799233202945516], [-72.24445417813074, 43.799313778671504], [-72.24445088610555, 43.79939450942278], [-72.24443668490554, 43.79947461771702], [-72.24441171125343, 43.79955333206346], [-72.24437620561963, 43.79962989439296], [-72.24433050990778, 43.79970356735879], [-72.24427506416343, 43.79977364143817], [-72.2442104023373, 43.799839441765734], [-72.2441371471438, 43.799900334633435], [-72.24405600406466, 43.79995573359399], [-72.24396775455482, 43.800005105109406], [-72.24387324851654, 43.80004797368977], [-72.24377339611402, 43.80008392647303], [-72.24366915900718, 43.80011261720177], [-72.2434756011731, 43.80015815531224], [-72.24356298290523, 43.80020524770911], [-72.24364548958127, 43.800259580149344], [-72.24372024639678, 43.80031950830637], [-72.2437865333982, 43.80038445505501], [-72.24384371219239, 43.80045379493758], [-72.24389123209531, 43.80052686018698], [-72.24392863543615, 43.80060294715699], [-72.2439555619661, 43.80068132309841], [-72.24397175232897, 43.80076123321534], [-72.24397705056052, 43.800841907934135], [-72.24397140559202, 43.800922570314505], [-72.24395487174382, 43.80100244353197], [-72.24392760820388, 43.801080758359035], [-72.24388987749626, 43.80115676057353], [-72.2438420429545, 43.80122971822245], [-72.24373130137138, 43.80137921529683], [-72.24352744735496, 43.80165423647488], [-72.24349715419109, 43.80169259667214], [-72.2433146377166, 43.80190995899799], [-72.2429319492908, 43.80244879212743], [-72.24263774669795, 43.802945811604324], [-72.24258882982713, 43.80301839229726], [-72.24253032569476, 43.80308715087261], [-72.24246279770797, 43.803151425133564], [-72.2423868961866, 43.803210596068645], [-72.24230335210069, 43.803264093813624], [-72.242212970031, 43.80331140314035], [-72.24211662042025, 43.80335206841918], [-72.24201523118968, 43.80338569800757], [-72.2419097788019, 43.803411968022345], [-72.24180127885583, 43.80343062545927], [-72.2416907763047, 43.80344149063003], [-72.24157933539095, 43.80344445889299], [-72.24146802939543, 43.8034395016611], [-72.24135793029943, 43.80342666667727], [-72.24125009845918, 43.803406077554456], [-72.24114557239247, 43.803377932585015], [-72.24104535877572, 43.803342502830816], [-72.24095042274783, 43.80330012951225], [-72.24086167861427, 43.80325122072169], [-72.24077998104119, 43.80319624749276], [-72.24070611682393, 43.80313573926344], [-72.24064079730975, 43.80307027877671], [-72.24058465154732, 43.8030004964678], [-72.24053822022917, 43.802927064392144], [-72.2405019504854, 43.80285068975267], [-72.24047619157868, 43.80277210808851], [-72.24046119154191, 43.80269207619104], [-72.24045709479121, 43.80261136481531], [-72.24046394073659, 43.80253075125701], [-72.24048166340414, 43.802451011866744], [-72.24051009207317, 43.802372914573375], [-72.24054895292178, 43.80229721148866], [-72.24085886636306, 43.80177368089233], [-72.24089278501346, 43.80172150912118], [-72.24131225020722, 43.80113092143613], [-72.24135185441429, 43.801079732665144], [-72.24153957969885, 43.80085617582922], [-72.24172879433131, 43.80060091616772], [-72.24183946944393, 43.80045151552619], [-72.24185817080094, 43.8004289976246], [-72.24184127227396, 43.80042718301746], [-72.24173310147161, 43.800407564318405], [-72.24162810660496, 43.800380360648255], [-72.24152729886593, 43.80034583400334], [-72.24143164911597, 43.800304316906384]]]}}, {"type": "Feature", "properties": {}, "geometry": {"type": "Polygon", "coordinates": [[[-72.23471291905342, 43.821104622809635], [-72.23475993308585, 43.82116846636597], [-72.23479902123556, 43.8212350528026], [-72.2352487226398, 43.822105540434336], [-72.23527662854897, 43.82216676533531], [-72.23536241876131, 43.82238312033437], [-72.2356822589325, 43.822927431478604], [-72.23572084050072, 43.82300321271313], [-72.23574897708824, 43.823081367001706], [-72.23576639768577, 43.823161141683435], [-72.23577293448146, 43.82324176848927], [-72.23576852447863, 43.823322470940745], [-72.23575321010405, 43.82340247182778], [-72.23572713880114, 43.82348100069368], [-72.23569056161162, 43.823557301255256], [-72.23564383075932, 43.82363063868656], [-72.23558739625938, 43.82370030669594], [-72.2355218015855, 43.82376563432854], [-72.2354476784368, 43.823825992428475], [-72.23536574065471, 43.82388079969858], [-72.23527677734853, 43.82392952829912], [-72.23518164529561, 43.82397170893191], [-72.23508126068985, 43.82400693536035], [-72.23497659031727, 43.82403486832236], [-72.23486864224445, 43.824055238798096], [-72.23475845610888, 43.82406785060111], [-72.23464709310524, 43.82407258226809], [-72.23453562576395, 43.824069388228764], [-72.23442512762038, 43.824058299244825], [-72.23431666287442, 43.82403942211366], [-72.23421127614006, 43.824012938639626], [-72.2341099823837, 43.82397910388295], [-72.23401375714805, 43.82393824370289], [-72.23392352715612, 43.823890751619196], [-72.23384016138552, 43.8238370850216], [-72.23376446269918, 43.8237777607645], [-72.2336971601132, 43.82371335018864], [-72.23363890177612, 43.823644473618266], [-72.23359024872742, 43.82357179438639], [-72.23324309859811, 43.82298097093919], [-72.23319651237392, 43.8228858865502], [-72.23310376331763, 43.82265196078944], [-72.23270480577638, 43.821879645508716], [-72.23240763780409, 43.82151558980433], [-72.23221242180651, 43.82136108182425], [-72.23190353255025, 43.82115947289245], [-72.23182444383274, 43.8211025165867], [-72.23175344661547, 43.82104022172932], [-72.23169122463194, 43.82097318826928], [-72.23163837709707, 43.82090206179005], [-72.23159541293707, 43.8208275272916], [-72.23156274588919, 43.820750302593034], [-72.23154069051837, 43.82067113141919], [-72.23152945918919, 43.82059077623775], [-72.23152916002226, 43.82051001091608], [-72.23153979585467, 43.820429613268374], [-72.23156126421428, 43.820350357564806], [-72.23159335830829, 43.82027300707506], [-72.23163576901636, 43.82019830671784], [-72.23168808786897, 43.820126975887256], [-72.23174981098241, 43.82005970152504], [-72.23182034391239, 43.819997131505474], [-72.2318990073796, 43.819939868396574], [-72.23198504381175, 43.81988846365758], [-72.23207762463947, 43.819843412328765], [-72.2321758582756, 43.81980514826448], [-72.2322787987009, 43.819774039955455], [-72.23238545457396, 43.819750386980544], [-72.23249479877698, 43.81973441712214], [-72.23260577830622, 43.81972628417264], [-72.23271732441134, 43.819726066453775], [-72.23282836288645, 43.8197337660623], [-72.23293782441358, 43.819749308849886], [-72.23304465485913, 43.81977254513706], [-72.2331478254242, 43.81980325115448], [-72.2332463425511, 43.819841131197585], [-72.23333925749054, 43.819885820474], [-72.23342567543786, 43.81993688861614], [-72.23377522553263, 43.820165032540544], [-72.2338528389593, 43.82022081711821], [-72.23416476054605, 43.82046768864206], [-72.23423959209182, 43.82053344831619], [-72.23430463249068, 43.820604457395916], [-72.23471291905342, 43.821104622809635]]]}}, {"type": "Feature", "properties": {}, "geometry": {"type": "Polygon", "coordinates": [[[-72.26609706225909, 43.82632898348843], [-72.26600254132528, 43.82637188276562], [-72.26590266736707, 43.8264078680183], [-72.26579840225199, 43.826436592676274], [-72.2656907501431, 43.82645778009497], [-72.26558074782716, 43.82647122622003], [-72.26546945472829, 43.82647680155285], [-72.26535794270356, 43.82647445239783], [-72.26524728571873, 43.826464201379636], [-72.2651385495037, 43.826446147225255], [-72.26503278128727, 43.826420463813044], [-72.26493099971029, 43.8263873984979], [-72.26483418501418, 43.826347269728736], [-72.2647432695996, 43.8263004639812], [-72.26465912904602, 43.826247432035174], [-72.26458257367894, 43.82618868463297], [-72.26451434076564, 43.826124787559934], [-72.2644698075, 43.82607335635663], [-72.26448584988236, 43.82609829913502], [-72.26452280148243, 43.82617450554562], [-72.26454925783428, 43.826252967151575], [-72.2645649641096, 43.8263329283319], [-72.26456976900597, 43.82641361902104], [-72.2645636262057, 43.82649426212479], [-72.26454659482349, 43.82657408100416], [-72.26451883883888, 43.82665230695484], [-72.2644806255186, 43.82672818661046], [-72.26443232284416, 43.826800989198226], [-72.26437439596927, 43.82687001357705], [-72.26430740274122, 43.82693459499032], [-72.26423198832924, 43.826994111468565], [-72.26374515217874, 43.82734235092102], [-72.26351120951537, 43.827564630958726], [-72.26343932348381, 43.82762639398743], [-72.26335942130824, 43.827682758507535], [-72.26327227249162, 43.827733181682135], [-72.2631787163345, 43.827777177893104], [-72.26307965385189, 43.82781432341849], [-72.26297603909521, 43.82784426051376], [-72.26286886996326, 43.82786670085748], [-72.26275917859073, 43.82788142832855], [-72.26264802140672, 43.8278883010878], [-72.26253646895914, 43.82788725294423], [-72.26242559560312, 43.82787829399254], [-72.26231646915267, 43.827861510515916], [-72.26221014059536, 43.82783706415489], [-72.2621076339693, 43.82780519035052], [-72.26200993649957, 43.82776619607647], [-72.26191798908964, 43.827720456882325], [-72.261832677259, 43.82766841327631], [-72.26175482261453, 43.82761056648236], [-72.2616851749378, 43.82754747361255], [-72.2616244049641, 43.82747974230104], [-72.26157309792345, 43.82740802485181], [-72.26153174790515, 43.82733301195592], [-72.26150075310042, 43.82725542603938], [-72.2614804119688, 43.82717601430531], [-72.26147092036533, 43.827095541537695], [-72.2614723696558, 43.82701478273586], [-72.26148474583874, 43.82693451565069], [-72.26150792968176, 43.82685551329453], [-72.26154169787152, 43.82677853649675], [-72.261585725166, 43.82670432657677], [-72.26163958752801, 43.82663359820519], [-72.26170276621016, 43.82656703252148], [-72.26198512726386, 43.82629875522327], [-72.26209036857033, 43.82621210739598], [-72.2626340301319, 43.82582322777333], [-72.26271713910322, 43.82576935051134], [-72.26280714200011, 43.825721630224194], [-72.26290317205891, 43.825680526469355], [-72.26300430447904, 43.82564643508463], [-72.26310956532849, 43.82561968437668], [-72.26321794092223, 43.825600531959665], [-72.26332838758326, 43.825589162274625], [-72.2634398416922, 43.82558568481355], [-72.26355122992902, 43.82559013306503], [-72.26366147960788, 43.82560246419178], [-72.26376952900613, 43.825622559443204], [-72.26387433758754, 43.82565022529874], [-72.26397489602182, 43.82568519533129], [-72.26407023590373, 43.82572713277274], [-72.2641594390783, 43.82577563375665], [-72.26424164648233, 43.82583023120721], [-72.26431606641727, 43.8258903993369], [-72.26438198217345, 43.8259555587094], [-72.26440610070439, 43.82598509186027], [-72.26440538425037, 43.825984049583944], [-72.26436570991315, 43.825908564091364], [-72.26433644645608, 43.82583062669428], [-72.26431787566412, 43.825750987980335], [-72.2643101763425, 43.825670414918996], [-72.26431342259617, 43.825589683474924], [-72.26432758311796, 43.82550957113507], [-72.26435252149167, 43.825430849420975], [-72.2643879975075, 43.825354276458825], [-72.26443366947693, 43.82528058967848], [-72.26448909752473, 43.825210498712075], [-72.26464003135213, 43.82503966313208], [-72.26545837567394, 43.824113386605354], [-72.26552302342022, 43.82404756573127], [-72.26559627073337, 43.82398664944791], [-72.26567741219579, 43.82393122439676], [-72.26576566637351, 43.82388182433558], [-72.26586018334183, 43.82383892499872], [-72.26596005286997, 43.82380293951606], [-72.26606431318648, 43.82377421443494], [-72.26617196024053, 43.823753026383166], [-72.26628195737025, 43.82373957940536], [-72.2663932452848, 43.82373400299817], [-72.26650475226445, 43.82373635086338], [-72.26661540447999, 43.82374660039077], [-72.26672413633274, 43.823764652875845], [-72.26682990071512, 43.8237903344703], [-72.26693167909343, 43.82382339785592], [-72.26702849131543, 43.823863524626084], [-72.2671194050487, 43.82391032835176], [-72.26720354475866, 43.82396335830239], [-72.26728010013981, 43.82402210378623], [-72.26734833391934, 43.82408599906792], [-72.26740758895738, 43.82415442881621], [-72.2674572945762, 43.824226734029395], [-72.26749697205685, 43.824302218381305], [-72.26752623925047, 43.82438015492674], [-72.2675448142599, 43.82445979310213], [-72.26755251815597, 43.824540365953375], [-72.26754927670227, 43.82462109752195], [-72.26753512107175, 43.82470121031771], [-72.26751018754827, 43.824779932806564], [-72.26747471621565, 43.82485650684096], [-72.26742904864712, 43.824930194961446], [-72.26737362461712, 43.82500028749933], [-72.2665552966511, 43.825926578797215], [-72.26640436296685, 43.82609742035393], [-72.26633971366155, 43.82616324154385], [-72.2662664641506, 43.826224158099144], [-72.26618531986094, 43.82627958334438], [-72.26609706225909, 43.82632898348843]]]}}, {"type": "Feature", "properties": {}, "geometry": {"type": "Polygon", "coordinates": [[[-72.24602109632046, 43.83594287765224], [-72.24606924300502, 43.83587001856332], [-72.24612702355257, 43.83580092630321], [-72.24619388148457, 43.83573626625411], [-72.24626917291023, 43.83567666111247], [-72.24635217272822, 43.835622684892634], [-72.24644208160974, 43.835574857399415], [-72.24653803369647, 43.83553363922266], [-72.24663910493858, 43.83549942730215], [-72.24674432199318, 43.835472551105326], [-72.24685267159694, 43.835453269454796], [-72.24696311032308, 43.83544176803619], [-72.24707457462867, 43.835438157610106], [-72.24718599109546, 43.835442472945616], [-72.24729628676582, 43.83545467248546], [-72.24740439947415, 43.83547463874621], [-72.2475092880747, 43.83550217944955], [-72.24760994246658, 43.835537029373654], [-72.24770539332059, 43.83557885290705], [-72.24779472141314, 43.83562724728029], [-72.24787706647818, 43.835681746444315], [-72.24795163549149, 43.835741825558095], [-72.24801771030786, 43.835806906042656], [-72.2480746545774, 43.83587636115235], [-72.24812191987438, 43.83594952201037], [-72.24815905097975, 43.83602568404969], [-72.24818569026628, 43.836104113798044], [-72.24820158114392, 43.836184055941345], [-72.24820657053243, 43.83626474059741], [-72.24820061033735, 43.83634539073016], [-72.24813288235093, 43.836821860267186], [-72.24829035674763, 43.840321450149695], [-72.24828851261151, 43.84040220450643], [-72.24827574157703, 43.840482439174735], [-72.24825216659333, 43.84056138144719], [-72.24821801466024, 43.84063827105992], [-72.24817361464379, 43.840712367514655], [-72.24811939411038, 43.84078295721043], [-72.24805587521018, 43.84084936031638], [-72.24798366964957, 43.84091093731949], [-72.24790347280052, 43.84096709518394], [-72.24781605700416, 43.841017293063025], [-72.24772226413253, 43.84106104750833], [-72.24762299748065, 43.841097937126335], [-72.24751921306645, 43.841127606637045], [-72.2474119104229, 43.84114977029613], [-72.24730212297065, 43.84116421464719], [-72.24719090806425, 43.841170800577785], [-72.24707933680762, 43.841169464659316], [-72.246968483737, 43.84116021975805], [-72.24685941647104, 43.841143154911144], [-72.24675318542721, 43.841118434469], [-72.24665081370433, 43.8410862965123], [-72.2465532872281, 43.841047050558764], [-72.24646154525496, 43.84100107458182], [-72.24637647132563, 43.8409488113701], [-72.2462988847556, 43.84089076426251], [-72.24622953274434, 43.84082749230022], [-72.24616908317944, 43.84075960484217], [-72.2461181182049, 43.84068775569604], [-72.24607712861547, 43.84061263682116], [-72.24604650913096, 43.840534971664084], [-72.24602655459623, 43.840455508190956], [-72.24601745714297, 43.84037501168396], [-72.24585761383814, 43.836819774448024], [-72.2458629866105, 43.836708748380985], [-72.24593860678416, 43.83617689872139], [-72.24595546212726, 43.83609706015324], [-72.24598304720536, 43.83601880190951], [-72.24602109632046, 43.83594287765224]]]}}, {"type": "Feature", "properties": {}, "geometry": {"type": "Polygon", "coordinates": [[[-72.24409393832731, 43.85926840223871], [-72.24408279878514, 43.859279264636264], [-72.24398492323765, 43.859373083853704], [-72.24388898171911, 43.85946688526469], [-72.24388252510782, 43.859473135650745], [-72.24382619671063, 43.85952712914052], [-72.24375553422846, 43.85961039964548], [-72.24372701964491, 43.85964232427927], [-72.24364690585611, 43.85972763057393], [-72.24358508231553, 43.859807153724915], [-72.24355122695755, 43.859847900507546], [-72.24344519829654, 43.85996754382438], [-72.24341956943168, 43.85999521466729], [-72.24333754881489, 43.860080007789286], [-72.24324157479141, 43.86018347462076], [-72.24316088773213, 43.860271051061815], [-72.24303035534153, 43.86042906897987], [-72.24299277449433, 43.86047155024311], [-72.24286153822335, 43.86061034012938], [-72.2427310706315, 43.86075560155488], [-72.2425952199408, 43.86091016602752], [-72.24252651836504, 43.86099065597373], [-72.24246543849146, 43.86108743122176], [-72.24244823578876, 43.861113469076706], [-72.24232900637469, 43.86128608782356], [-72.24230628786998, 43.86131728901746], [-72.24219366279503, 43.86146424170165], [-72.24210641534908, 43.86158472061099], [-72.24202606978331, 43.86170646266173], [-72.2420221173636, 43.86171239040255], [-72.2419346676808, 43.861842215898676], [-72.2419146462499, 43.861870535910434], [-72.24182882520458, 43.86198635146963], [-72.24177976169808, 43.86205596700318], [-72.24173458190107, 43.862120072537095], [-72.24122862088879, 43.86307302286846], [-72.24117544053757, 43.863493050675096], [-72.24114166017905, 43.86407663629638], [-72.24113152223458, 43.8641570675629], [-72.24111053669026, 43.86423639257939], [-72.24107890560732, 43.86431384739664], [-72.2410369335734, 43.864388686073724], [-72.24098502477057, 43.864460187862186], [-72.240923679084, 43.86452766414763], [-72.24085348728885, 43.86459046508199], [-72.24077512536138, 43.864647985842446], [-72.24068934796928, 43.8646996724568], [-72.2405969812039, 43.8647450271392], [-72.24049891462408, 43.86478361308458], [-72.2403960926888, 43.86481505867599], [-72.24028950566034, 43.864839061063925], [-72.24018018006655, 43.86485538908338], [-72.24006916881324, 43.864863885480446], [-72.23995754104273, 43.86486446842697], [-72.23984637183563, 43.86485713230875], [-72.23973673185561, 43.86484194777957], [-72.2396296770366, 43.86481906108068], [-72.23952623841203, 43.86478869263221], [-72.23942741218399, 43.864751134910016], [-72.23933415012799, 43.864706749628546], [-72.23924735042601, 43.864655964256926], [-72.23916784901569, 43.864599267901504], [-72.23909641153956, 43.86453720659502], [-72.23903372597145, 43.86447037803728], [-72.23898039599118, 43.864399425838506], [-72.23893693517145, 43.86432503332036], [-72.23890376203286, 43.864247916934715], [-72.23888119601439, 43.864168819363435], [-72.2388694543985, 43.8640885023655], [-72.23886865022016, 43.86400773944072], [-72.2389036316332, 43.863403800688346], [-72.23890737988008, 43.863363160115085], [-72.2389775302539, 43.862809264785916], [-72.23899181642695, 43.86273444472476], [-72.23901552287177, 43.86266088738149], [-72.23904844988394, 43.86258921230111], [-72.23963236692421, 43.86148951060374], [-72.23968085954878, 43.861410770437], [-72.23975314196227, 43.86130821402878], [-72.23980753020116, 43.861231046985424], [-72.2398183828715, 43.86121603290445], [-72.23989935046848, 43.86110677203702], [-72.23997517805844, 43.86099420605584], [-72.2400626710178, 43.86086164087671], [-72.24008158086669, 43.8608343067724], [-72.24018488659097, 43.860691659800416], [-72.24019766635251, 43.86067451005276], [-72.240305003278, 43.86053446342879], [-72.2404044222864, 43.860390532967585], [-72.2404867564642, 43.860260089270476], [-72.24055365667569, 43.86016952026566], [-72.24066366351516, 43.86004064251752], [-72.24067162992804, 43.860031445701615], [-72.24081451435359, 43.85986888447374], [-72.24082057212823, 43.85986206682204], [-72.24096145445056, 43.85970521524084], [-72.24097644126797, 43.85968895544071], [-72.24109561589071, 43.859562925662736], [-72.24122263572788, 43.85940916583427], [-72.24125255241248, 43.85937489650064], [-72.24134976877598, 43.85926938304624], [-72.24135174563185, 43.85926724471646], [-72.24145490969272, 43.859156030254496], [-72.24146748408265, 43.859142756895785], [-72.24154268121089, 43.859065020428105], [-72.24161854275366, 43.858979420930346], [-72.24168781404988, 43.85889032147473], [-72.24173838349456, 43.85883125853186], [-72.24183074054471, 43.85873291879597], [-72.24191623023259, 43.85863217924605], [-72.24197770365036, 43.858566973488195], [-72.24206368378339, 43.85848455981217], [-72.24215962644222, 43.85839076004935], [-72.24216608284884, 43.8583845100154], [-72.24226157675642, 43.85829297638648], [-72.24235522465284, 43.858200075208266], [-72.24237566579275, 43.85818042080572], [-72.24280110776171, 43.857783827019205], [-72.24284642242378, 43.85774420532718], [-72.24303351063544, 43.85759065294119], [-72.24304869077567, 43.85757844164568], [-72.2432827001014, 43.85739393426181], [-72.24358015644529, 43.85714433129485], [-72.243657106968, 43.85708582815285], [-72.24374161153686, 43.857033064365005], [-72.2438328563333, 43.85698654805983], [-72.24392996263504, 43.8569467271999], [-72.24403199527815, 43.85691398526835], [-72.24413797166223, 43.85688863757626], [-72.24424687121231, 43.856870928226414], [-72.24435764520621, 43.85686102776286], [-72.24446922687262, 43.85685903152874], [-72.24458054166327, 43.85686495874821], [-72.24469051759948, 43.85687875234131], [-72.24479809559442, 43.85690027947364], [-72.244902239651, 43.85692933283536], [-72.24500194683765, 43.85696563263738], [-72.24509625694586, 43.857008829305535], [-72.24518426173648, 43.85705850684664], [-72.24526511368587, 43.857114186854176], [-72.24533803414762, 43.857175333115016], [-72.2454023208512, 43.85724135677286], [-72.24545735466549, 43.85731162199867], [-72.245502605562, 43.85738545211338], [-72.24553763772008, 43.857462136104296], [-72.24556211372534, 43.857540935471995], [-72.24557579782054, 43.85762109134217], [-72.24557855817744, 43.857701831773696], [-72.24557036816822, 43.85778237919277], [-72.24555130662348, 43.857861957881276], [-72.24552155707477, 43.85793980144754], [-72.2454814059887, 43.85801516020726], [-72.24543124000954, 43.85808730840366], [-72.2453715422369, 43.85815555119743], [-72.24530288757418, 43.85821923135883], [-72.2449939505521, 43.8584784741715], [-72.2449705794485, 43.858497483547836], [-72.24473235652736, 43.85868531734746], [-72.24457628815698, 43.858813413239666], [-72.24418307553772, 43.859179973139405], [-72.24409393832731, 43.85926840223871]]]}}, {"type": "Feature", "properties": {}, "geometry": {"type": "Polygon", "coordinates": [[[-72.24158054537898, 43.88862852082036], [-72.24085241798798, 43.88854355944214], [-72.24074317458232, 43.88852679779169], [-72.24063672900438, 43.88850237279041], [-72.24053410641933, 43.88847051967368], [-72.24043629516913, 43.88843154521596], [-72.24034423725308, 43.888385824775995], [-72.24025881925498, 43.88833379868144], [-72.2401808638042, 43.88827596798764], [-72.2401111216531, 43.88821288965161], [-72.24005026444682, 43.88814517116762], [-72.23999887825546, 43.888073464716115], [-72.23995745793049, 43.88799846088228], [-72.23992640234009, 43.88792088200486], [-72.23990601052914, 43.887841475219226], [-72.23989647884059, 43.8877610052617], [-72.2398978990262, 43.887680247104555], [-72.2399102573646, 43.887599978492474], [-72.23993343479509, 43.887520972452485], [-72.23996720806603, 43.88744398984942], [-72.2400112518863, 43.8873697720586], [-72.24006514205945, 43.8872990338264], [-72.24012835957019, 43.88723245638722], [-72.24020029558358, 43.887170680903374], [-72.2402802573091, 43.887114302290954], [-72.24036747467291, 43.88706386349099], [-72.240461107734, 43.887019850241266], [-72.24056025477289, 43.88698268639902], [-72.24066396097501, 43.886952729859544], [-72.24077122762513, 43.88693026910982], [-72.24088102172422, 43.886915520450806], [-72.24099228593641, 43.886908625914565], [-72.24110394877013, 43.88690965189666], [-72.24121493489547, 43.88691858851685], [-72.24198551228079, 43.88700850292163], [-72.24206981229469, 43.88702071842987], [-72.24289748000072, 43.887164365299206], [-72.24373840858057, 43.887229532460786], [-72.2441360779474, 43.88720447603504], [-72.24450349388195, 43.887181325210044], [-72.24461508639637, 43.887178271493845], [-72.24472655543487, 43.88718314303881], [-72.24483682753356, 43.88719589293132], [-72.24494484075383, 43.88721639838798], [-72.2450495549078, 43.88724446193787], [-72.24514996157434, 43.88727981332409], [-72.24524509380953, 43.88732211210596], [-72.2453340354578, 43.887370950937296], [-72.24541592997417, 43.88742585948868], [-72.24548998867289, 43.88748630897656], [-72.24555549832272, 43.88755171725502], [-72.24561182801602, 43.88762145442158], [-72.24565843524518, 43.88769484888293], [-72.24569487112817, 43.887771193822225], [-72.24572078473263, 43.88784975400566], [-72.24573592645685, 43.88792977286274], [-72.2457401504351, 43.888010479772305], [-72.24573341594404, 43.88809109748377], [-72.24571578779664, 43.8881708496025], [-72.2456874357196, 43.88824896806697], [-72.24564863272046, 43.88832470054577], [-72.24559975245987, 43.888397317683356], [-72.24554126565428, 43.888466120124484], [-72.24547373554377, 43.88853044524983], [-72.2453978124685, 43.88858967355803], [-72.24531422760596, 43.8886432346323], [-72.24522378592955, 43.888690612634505], [-72.245127358456, 43.88873135127362], [-72.24502587385642, 43.8887650582005], [-72.24492030951194, 43.88879140878709], [-72.2448116820998, 43.88881014925318], [-72.2447010378009, 43.88882109911077], [-72.24433361598413, 43.88884425027994], [-72.24382583159002, 43.88887624456882], [-72.24371577922838, 43.88887930952696], [-72.24360583260368, 43.88887466619993], [-72.24258203745327, 43.88879532802166], [-72.24243774460308, 43.88877729284179], [-72.24158054537898, 43.88862852082036]]]}}, {"type": "Feature", "properties": {}, "geometry": {"type": "Polygon", "coordinates": [[[-72.26008953135923, 43.88968175842687], [-72.25999918020257, 43.8897292283104], [-72.259902830247, 43.889770064917684], [-72.25980140941697, 43.8898038749561], [-72.25969589447935, 43.88983033280451], [-72.25958730163553, 43.88984918364965], [-72.2594766767334, 43.889860245940504], [-72.25936508519388, 43.88986341313696], [-72.25925360174857, 43.88985865473606], [-72.25914330008794, 43.88984601656571], [-72.2590352425193, 43.88982562034345], [-72.2589304697346, 43.889797662503845], [-72.2588299907866, 43.889762412306546], [-72.25873477336974, 43.8897202092427], [-72.25864573449978, 43.88967145976504], [-72.25856373168155, 43.88961663337294], [-72.25848955465035, 43.8895562580903], [-72.25842391776622, 43.88949091537984], [-72.2583674531344, 43.88942123454256], [-72.25832070451843, 43.889347886656815], [-72.2582841221042, 43.889271578114766], [-72.25825805816552, 43.88919304381912], [-72.25824276367292, 43.88911304010518], [-72.25823838587809, 43.88903233745665], [-72.2582449668975, 43.88895171308525], [-72.25826244330838, 43.88887194344583], [-72.25829064676138, 43.888793796758605], [-72.25908299584687, 43.886969740660916], [-72.25912165249568, 43.88689396921608], [-72.25917039192828, 43.88682130294867], [-72.25922874473001, 43.88675244166201], [-72.25929614891155, 43.88668804851383], [-72.25937195532191, 43.886628743630084], [-72.25945543390061, 43.88657509813342], [-72.25954578070863, 43.886527628643606], [-72.25964212567064, 43.886486792302755], [-72.25974354095369, 43.8864529823734], [-72.25984904990203, 43.88642652445168], [-72.25995763644161, 43.886407673332116], [-72.26006825486418, 43.88639661055421], [-72.26017983989644, 43.88639344265437], [-72.26029131695763, 43.88639820014005], [-72.26040161250664, 43.886410837196024], [-72.26050966437903, 43.886431232125524], [-72.26061443201473, 43.88645918852207], [-72.26071490647767, 43.886494437160586], [-72.26081012017112, 43.88653663858996], [-72.2608991561551, 43.886585386401464], [-72.2609811569763, 43.88664021114233], [-72.26105533292531, 43.886700584836056], [-72.26112096964184, 43.8867659260667], [-72.26117743499464, 43.88683560557751], [-72.26122418516977, 43.88690895233047], [-72.26126076990865, 43.88698525996823], [-72.26128683684543, 43.88706379361621], [-72.26130213490178, 43.88714379695956], [-72.26130651670647, 43.887224499526546], [-72.26129994001622, 43.887305124108494], [-72.26128246812424, 43.887384894244605], [-72.26125426925236, 43.88746304169991], [-72.26046197975843, 43.88928711283016], [-72.2604233232458, 43.88936288469691], [-72.26037458324815, 43.889435551465034], [-72.26031622913105, 43.88950441330139], [-72.26024882285658, 43.88956880701469], [-72.26017301357211, 43.889628112443006], [-72.26008953135923, 43.88968175842687]]]}}]}