{"type": "FeatureCollection", "features": [{"type": "Feature", "properties": {}, "geometry": {"type": "Polygon", "coordinates": [[[-72.20533900918632, 43.7718655535409], [-72.20686108582669, 43.77168126521539], [-72.20847731285956, 43.77215963988095], [-72.2211022286763, 43.77585438206599], [-72.22273743867143, 43.776332691105026], [-72.22526535415615, 43.777072162685286], [-72.22975888853813, 43.77838705932538], [-72.23437395930921, 43.77973626374109], [-72.23581149385714, 43.78015722225156], [-72.23847161936433, 43.780934599244624], [-72.24124943400453, 43.781746382901396], [-72.24578573564813, 43.78307244604955], [-72.24798577950702, 43.78371554860636], [-72.25425202915632, 43.785546138248], [-72.25548050594028, 43.78590528545875], [-72.25858899528946, 43.78681276001626], [-72.26054236956543, 43.78738210464765], [-72.2646996636296, 43.788594024230306], [-72.26632266701675, 43.789067183343526], [-72.26830337054523, 43.7896435614474], [-72.27729506075777, 43.792264217208064], [-72.2814891544006, 43.79348567748414], [-72.28445954148799, 43.79435069068659], [-72.28721254152286, 43.795152398201715], [-72.29263572979308, 43.7967636542689], [-72.29452131338877, 43.79732428377354], [-72.2973019658321, 43.7981498290543], [-72.30048391862823, 43.79909508503947], [-72.30513314075695, 43.80047487951756], [-72.31081041573546, 43.802130437450494], [-72.31520950440441, 43.803412201217675], [-72.31837183241355, 43.804334155303884], [-72.32624424347507, 43.8066280306997], [-72.32775174407308, 43.807066658492886], [-72.33429732701352, 43.80897364814663], [-72.33935051127304, 43.81045595954477], [-72.33356548969438, 43.81865768710674], [-72.3317222926678, 43.821269367010835], [-72.33162506842157, 43.82140684162402], [-72.32435937620295, 43.831701121538835], [-72.324279721223, 43.83181395529361], [-72.32402652291717, 43.832172055371636], [-72.32333270890094, 43.83306905411394], [-72.32322000449899, 43.833214687803554], [-72.3196145434566, 43.837874276851295], [-72.31922918723824, 43.83837220476528], [-72.31575382464814, 43.84286266446823], [-72.3156563158846, 43.84298842388804], [-72.31422159298178, 43.844842178515066], [-72.314116335362, 43.844978274523505], [-72.30503831212985, 43.85670308309135], [-72.29858668243332, 43.86500236795199], [-72.29615367588394, 43.868131556675834], [-72.29292693687562, 43.87229196572967], [-72.29228206072924, 43.87312315504991], [-72.29063192058327, 43.87525000467682], [-72.2894733889492, 43.8767434766503], [-72.28935189555725, 43.87690004012216], [-72.28715152762526, 43.879736045487405], [-72.28121575257677, 43.88738535577868], [-72.27942414481964, 43.88969357530685], [-72.27156208931628, 43.89982031293459], [-72.26761999639773, 43.89873402840065], [-72.26165863749277, 43.89709097014366], [-72.26048557597575, 43.89676783362594], [-72.25975824722967, 43.896567398261475], [-72.25956404539622, 43.89651379752083], [-72.25653579487874, 43.895681690120995], [-72.25542160045299, 43.89537320758568], [-72.25425607291443, 43.89505038317496], [-72.25302092508505, 43.894711465719716], [-72.25240565600161, 43.894542727004385], [-72.25168683528064, 43.89434459873468], [-72.25082156545025, 43.894107535010825], [-72.24986940347834, 43.89384669353544], [-72.24714026620032, 43.89309914482684], [-72.24663566972893, 43.89296095116856], [-72.24608632308865, 43.89281032531434], [-72.24377807623684, 43.89217784563695], [-72.24116482322451, 43.891461915191194], [-72.2405661538937, 43.89129774044692], [-72.24001534606855, 43.891146722036765], [-72.23898784334088, 43.890860867251604], [-72.23798840629722, 43.89059117828146], [-72.2364419360548, 43.89016730345037], [-72.232987473413, 43.88922045240816], [-72.2328143239928, 43.88917306561282], [-72.23135493604131, 43.888772906471424], [-72.23075594705303, 43.888608769518655], [-72.22310806835308, 43.88651878184688], [-72.22246450567772, 43.886342342820555], [-72.22088793040675, 43.885909993740675], [-72.21967933909796, 43.88556141987735], [-72.2196047743968, 43.88553972597551], [-72.21713505248478, 43.884883360085794], [-72.21546844671747, 43.884427312198575], [-72.2153252165416, 43.884374573114705], [-72.2152681709603, 43.88435922030535], [-72.2112753979062, 43.88326465295124], [-72.20781315807479, 43.882315400201925], [-72.20754944347959, 43.88224560247047], [-72.20590760846224, 43.88179244849219], [-72.20542059601927, 43.88165987812292], [-72.2031488527652, 43.88104143148287], [-72.20021862194606, 43.88023103538565], [-72.20017662101586, 43.88021958467645], [-72.19505813852, 43.87881565689628], [-72.19031887701432, 43.87751252248669], [-72.19026756151014, 43.87749843276787], [-72.18317619494422, 43.875550382878856], [-72.18315134642732, 43.87554356367082], [-72.18144849316728, 43.875075847979694], [-72.18134984771983, 43.87504848169365], [-72.17895277924659, 43.874390322100396], [-72.17889849128673, 43.87437468884733], [-72.1781306293239, 43.8741548984957], [-72.17789452997998, 43.87409933069027], [-72.17725073848584, 43.87392254606141], [-72.17712963555104, 43.873884312192395], [-72.1769946227709, 43.87384144866397], [-72.17620717248546, 43.87363428060083], [-72.17609163643506, 43.87360218169122], [-72.1742769858221, 43.873099030422395], [-72.1691983361794, 43.871709087141866], [-72.16850794691891, 43.870835305218264], [-72.16799626096362, 43.87000128017472], [-72.16804645691047, 43.869094182659516], [-72.16896426153829, 43.868481215483385], [-72.170157638089, 43.868088647126406], [-72.17140234763428, 43.86781501960344], [-72.17246028336393, 43.86731934267652], [-72.17355826704308, 43.86686796244554], [-72.17476076925504, 43.86650156322541], [-72.17608493060624, 43.86634061614343], [-72.17737882985584, 43.86632267520682], [-72.17870776630794, 43.866312918522475], [-72.1800871769016, 43.866146590107896], [-72.18142170907291, 43.86594960845907], [-72.18266155146748, 43.86554353818775], [-72.18371770751678, 43.86505333214351], [-72.18458980092588, 43.8643852097892], [-72.18505222222912, 43.86352955329592], [-72.18519217735027, 43.862629894844154], [-72.18519441396077, 43.861613841082146], [-72.18536396252541, 43.86071516367734], [-72.18566255521822, 43.85982944152041], [-72.1862764065836, 43.85900218718788], [-72.18695514112882, 43.85810931390505], [-72.18750835692008, 43.85726289563577], [-72.18800033867065, 43.85639677642103], [-72.1881923426283, 43.85549815528838], [-72.18791651600661, 43.85458196626035], [-72.18756138677135, 43.85365772924457], [-72.18717810597214, 43.852767525655146], [-72.1868136412069, 43.8518726919721], [-72.18633307126152, 43.851016240354475], [-72.18589873045529, 43.85007458928759], [-72.18536114118068, 43.849139852574], [-72.18484861954181, 43.84831309787728], [-72.18424568090406, 43.84723038776208], [-72.18374454239394, 43.84630294406901], [-72.18334064498232, 43.845380087737055], [-72.18300015847821, 43.844508798422545], [-72.18292342290943, 43.843570826509406], [-72.18308363641357, 43.84267023364403], [-72.18324070195467, 43.841776112027105], [-72.18322724952442, 43.840793222869564], [-72.18307501604123, 43.839764856374494], [-72.18296128690761, 43.8387690880445], [-72.18290397148871, 43.837851780149855], [-72.1827409196056, 43.83694326908483], [-72.18250954802595, 43.83602286723868], [-72.18242608764074, 43.835066783945464], [-72.18243358096964, 43.83409925257207], [-72.18249839690382, 43.83317778278785], [-72.18280663584325, 43.83216608374664], [-72.18324864212522, 43.831319373496505], [-72.18362165606014, 43.83044474892017], [-72.18421896426786, 43.82961385531995], [-72.18491951600156, 43.82876974241582], [-72.18552226432247, 43.827937956699955], [-72.18604254805996, 43.827110351412365], [-72.18659475041893, 43.82626231003018], [-72.18706308451613, 43.825402245578005], [-72.18768310052614, 43.82451289203026], [-72.1882572663677, 43.82363961082313], [-72.18873670306121, 43.82271566580949], [-72.18890769173828, 43.821818781008204], [-72.18885171688686, 43.82091587781562], [-72.18854423653617, 43.81999527836219], [-72.1881337492898, 43.819139920610176], [-72.1877344229292, 43.818244179457395], [-72.18739975189925, 43.817323412200324], [-72.18692660615169, 43.81642917610755], [-72.18637696534067, 43.81561870284116], [-72.18580332658338, 43.81478898974693], [-72.18526931878118, 43.813965953179476], [-72.18472523878438, 43.81312290506393], [-72.18417814365189, 43.812288846426306], [-72.18374152635272, 43.81141359841324], [-72.18343544526071, 43.81053438999424], [-72.1833369143108, 43.809634874660645], [-72.18350267576756, 43.80867677783937], [-72.18376769546164, 43.80763165018096], [-72.18408125731456, 43.806641649142136], [-72.18447450013298, 43.805575272556275], [-72.18552313172097, 43.80422979301266], [-72.18648783667363, 43.80364389849639], [-72.18758445675829, 43.80306636692143], [-72.1886955815174, 43.80237185729554], [-72.18963971442811, 43.801691194276344], [-72.19060614586026, 43.80104397573644], [-72.19126492541149, 43.80026550046581], [-72.19184175486761, 43.79939850504588], [-72.19222707311891, 43.79845979672306], [-72.19261060158769, 43.79757697551021], [-72.19294060460683, 43.796685998593155], [-72.19331144677253, 43.79570404464008], [-72.19362719036866, 43.794705830642926], [-72.19400320841368, 43.793751969690554], [-72.19452108655936, 43.792875801333054], [-72.19517871461984, 43.79197831196465], [-72.1959025417364, 43.79120439242542], [-72.19658584631809, 43.790430360622686], [-72.19742604913154, 43.78968203166875], [-72.19833457902185, 43.789054394271865], [-72.19953715323162, 43.78855443085403], [-72.20072791960088, 43.78817593136852], [-72.20187593611384, 43.78772161323491], [-72.20288232283345, 43.787162688934586], [-72.20382463467807, 43.78654310591126], [-72.20468928266473, 43.78582178805098], [-72.20545123359572, 43.784985711752775], [-72.2058133899653, 43.78402088385032], [-72.20583993482764, 43.782990477266324], [-72.20581903351743, 43.78195796825155], [-72.20542415980131, 43.78108749612815], [-72.20459137327623, 43.78024829355228], [-72.20402401008423, 43.779422463253404], [-72.2042715759973, 43.778492354726424], [-72.20479272863531, 43.77757483324245], [-72.20532882564603, 43.776696860297264], [-72.20542684823705, 43.77570704935004], [-72.20541822603498, 43.77470535167973], [-72.20551511302122, 43.77371814755228], [-72.20549929592222, 43.77281552832869], [-72.20533900918632, 43.7718655535409]]]}}]}